Name,Address,Country,City
Victorino’s,"114 Scout Rallos cor 11th Jamboree St., Laging Handa, Diliman, Quezon City, Philippines",2,1
Oedo,"105 Sto Domingo Ave., Quezon City, Philippines",2,1
Earth Kitchen,"Lot 10-B-10 White Plains, Katipunan, Quezon City, Philippines",2,1
Romulo Café,"32 Dr. Scout Lazcano cor Scout Tuason near Tomas Morato, Laging Handa, Diliman, Quezon City, Philippines",2,1
Soru Izakaya,"140 Maginhawa St., Sikatuna Village, Diliman, Quezon City, Philippines",2,1
Millie's All-Day Dining at Microtel UP Technohub QC,"Microtel by Wyndham UP Technohub Commonwealth Avenue UP-AyalaLand Technohub, Diliman, Quezon City, Philippines",2,1
Friuli Trattoria,"79A Maginhawa Street UP Village, Quezon City, Philippines",2,1
Pork at your own risk,"120 Dr.Lazcano Street Tomas Morato Area, Quezon City, Philippines",2,1
Rodic's,"Congressional Avenue Ext Cor. Diamond Street, Tierra Pura 6, Tandang Sora, Quezon City, Philippines",2,1
Shiok Shiok,"81-A Nicanor Roxas Street Banawe Sto. Domingo, Quezon City, Philippines",2,1
Shao Kao Grillery,"7 Masinsinan Street Cor. Maginhawa St, Quezon City, Philippines",2,1
Spiral,"Sofitel Philippine Plaza Manila, CCP Complex, Roxas Blvd, 1300 Pasay, Metro Manila, Philippines",2,2
Café Ilang-Ilang,"The Manila Hotel, 1 Rizal Park, Ermita, Manila, 0913 Metro Manila, Philippines",2,2
Sky Deck View Bar,"The Bayleaf, Muralla St, Intramuros, Manila, 1002 Metro Manila, Philippines",2,2
My Kitchen by Chef Chris,"Paco The Oasis Paco Park Hotel, 1032-34 Belen Street, Paco, Manila, Philippines",2,2
The Aristocrat,"423 San Andres St, Malate, Manila, 1004 Metro Manila, Philippines",2,2
Barbara’s Heritage Restaurant,"Plaza Sans Luis Complex, General Luna St, Intramuros, Manila, 1002 Metro Manila, Philippines",2,2
Bistro Remedios,"1911 M. Adriatico St, Remedios Circle, Malate, 1004 Metro Manila, Philippines",2,2
Movie Stars Café,"G/F Centris Station, EDSA cor, Quezon Ave, Quezon City, Metro Manila, Philippines",2,2
Ilustrado Restaurant,"General Luna Street, Intramuros, Manila, 1002 Metro Manila, Philippines",2,2
Harbor View Restaurant,"South Dr, Ermita, Manila, 1000 Metro Manila, Philippines",2,2
MilkyWay Café,"Milkyway, 900 Antonio Arnaiz Ave, Makati, 1200 Metro Manila, Philippines",2,2
Abe's Restaurant,"Mcarthur Avenue, Bonifacio Global, Taguig, 1630 Metro Manila, Philippines",2,2
Manam Comfort Filipino,"Ayala Center Makati, Makati City, Esperanza St, Makati, Metro Manila, Philippines",2,2
Romulo Café,"148 Jupiter St. corner Comet St., Bel-Air, Makati, 1209 Metro Manila, Philippines",2,2
Sarsa Kitchen + Bar,"SM Mega Mall, 202 EDSA Cor Dona Julia Vargas Ave Ortigas Center, Ortigas Center, Mandaluyong, 1550 Metro Manila, Philippines",2,2
The Singing Cook & Waiters,"Roxas Blvd, Pasay, Metro Manila, Philippines",2,2
Gerry's Grill,"Natividad Lopez St, Ermita, Manila, 1000 Metro Manila, Philippines",2,2
La Cocina de Tita Moning,"San Rafael Street San Miguel, Manila, 1005, Philippines",2,2
People's Palace,"Greenbelt 3 Esperanza Street, Makati, Metro Manila, 1223, Philippines",2,2
Kashmir,"5th Avenue, Taguig, Metro Manila, 1223, Philippines",2,2
Café Ysabel,"175 M. Paterno, San Juan, Metro Manila, 1500, Philippines",2,2
Gloria Maris,"General Roxas Avenue, Cubao Quezon City, Metro Manila, Philippines",2,2
Mendokoro Ramenba,"Salcedo Village Soliman, Makati, Metro Manila, 1227, Philippines",2,2
Your Local,"106 Esteban, Legazpi Village, Makati, Kalakhang Maynila, Philippines",2,2
Beso Cucina Vinoteka,"7th Avenue, C3 Building, Bonifacio High Street, Manila, 1634, Philippines",2,2
The Aristocrat Restaurant,"423 San Andres St, Malate, Manila, 1004 Metro Manila, Philippines",2,2
Shiok Shiok Singaporean Restaurant," 81 Nicanor Roxas St, Quezon City, 1114 Metro Manila, Philippines",2,2
Dragon Noodle Center," 1037 M. H. Del Pilar St, Malate, Manila City, 1000 Metro Manila, Philippines",2,2
Ristorante delle Mitre," Opposite San Agustin Church, Real St, Intramuros, Manila, Metro Manila, Philippines",2,2
Patio Victoria,"5435 General Luna St, Intramuros, Manila, 1002 Metro Manila, Philippines",2,2
Angel's Town Café,"164-B M.H. Del Pilar Street, East Grace Park, South Caloocan, Caloocan City, Philippines",2,3
Urban Orchard Café,"12th Avenue Corner 9th Street, East Grace Park, South Caloocan, Caloocan City, Philippines",2,3
Luk Foo Cantonese Kitchen,"Ground Floor, Puregold Monumento, 300 Samson Road, South Caloocan, Caloocan City, Philippines",2,3
David's Tea House,"Second Floor, SM Center Sangandaan, South Caloocan, Caloocan City, Philippines",2,3
Gryn Wasabi,"10th Avenue Corner D. Aquino Street, West Grace Park, South Caloocan, Caloocan City, Philippines",2,3
Silver Crown Panciteria Inc.,"240 Samson Road, South Caloocan, Caloocan City, Philippines",2,3
The Hideout Tea and Coffee House,"69 Caimito Road Corner Lapu-Lapu Street, South Caloocan, Caloocan City, Philippines",2,3
Samgyeopsal House by 25th Turning Point,"1061 Gen. San Miguel Street, Sangandaan, South Caloocan, Caloocan City, Philippines",2,3
Max’s Restaurant,"EDSA Extension Near World Citi College, South Caloocan, Caloocan City, Philippines",2,3
Orient Pearl,"181 A. Del Mundo Street Corner 10th Avenue, South Caloocan, Caloocan City, Philippines",2,3
Le Sizzle,"P. Burgos Street Corner 10th Avenue, South Caloocan, Caloocan City, Philippines",2,3
Fowlplay Kitchen + Dive Bar,"115 P. Pelayo Street, Poblacion District, Davao City, Philippines",2,4
Claude’s Le Café de Ville,"The Oboza Heritage House, 143 Rizal Street, Davao City, Philippines",2,4
Tsuru,"Camus Street, Poblacion District, Davao City, Philippines",2,4
Davao Dencia’s Restaurant,"General Luna Street, Poblacion District, Davao City, Philippines",2,4
Rekado Comfort Food Cuisine,"1050 Emilio Jacinto Extension, Poblacion District, Davao City, Philippines",2,4
Bulcachong,"18 General Luna Street, Poblacion District, Davao City, Philippines",2,4
Blue Post Boiling Crabs and Shrimps,"Branch1: In Between SM Lanang and Dcwd Branch2: Lanang Business Park, Davao City, Philippines",2,4
Lachi's,"Door 1-H, Values School Bldg., Ruby Street Marfori Subd, Davao City, Philippines",2,4
Penong's Barbeque Seafoods and Grill,"Santa Ana Ave. Also Lanang, Davao City, Philippines",2,4
Caitlyn's Dumpling Bar,"86 Circumferential Road Marfori Heights, Davao City, Philippines",2,4
Alibaba Shawarma,"Mamay Road Door 14, Rowi Square, Davao City, Philippines",2,4
Anzani Restaurant,"Panorama Heights, Nivel Hills, Lahug, Cebu City, 6000 Cebu, Philippines",2,5
Zubuchon,"One Mango Mall, General Maxilom Ave, Cebu City, 6000 Cebu, Philippines",2,5
Lantaw Restaurant,"Panagsama Beach, Moalboal, 6032 Cebu City, Philippines",2,5
Feria,"Radisson Blu Cebu, Sergio Osmena Boulevard, Corner Juan Luna Avenue, Cebu City, 6000 Cebu, Philippines",2,5
Lemon Grass Restaurant,"Ayala Center Cebu, Level 1, The Terraces, Cebu City, 6000 Cebu, Philippines",2,5
Yolk: Coffee & Breakfast,"80 Tres Broces Street, Mabolo, Cebu City, Philippines",2,5
The Pig & Palm,"MSY Tower, Pescadores Road, Cebu Business Park, Cebu City, Philippines",2,5
Birdseed Breakfast Club,"Unit F19, Axis Entertainment Ave, N. Escario Street, Cebu City, Philippines",2,5
Yakski Barbeque,"268 Don Mariano Cui Street, Capitol Site, Cebu City, Philippines",2,5
Bintana,"181-K Elizabeth Pond Street, Kamputhaw, Cebu City, Philippines",2,5
Ilaputi,"F17, Axis Entertainment Avenue, Escario Street, Capitol Site, Cebu City, Philippines",2,5
Mano-Mano na Greenfields,"Blue Ridge Lane, Gov. Ramos Ave, Zamboanga, Philippines",2,6
Tsokolate,"16 North South Valderosa Street, Zamboanga, Zamboanga Sibugay, Philippines",2,6
Alavar Seafood Restaurant,"173 Don Alfaro St, Zamboanga, 7000 Zamboanga del Sur, Philippines",2,6
Bay Tal Mal Restaurant,"Mayor Jaldon Street, Zamboanga, 7000 Zamboanga del Sur, Philippines",2,6
Chinito's Restaurant,"Gov Camins Ave, Zamboanga, Zamboanga del Sur, Philippines",2,6
Zambo. Aristocrat Chinese Restaurant,"Mayor Jaldon Street, Zamboanga, 7000 Zamboanga del Sur, Philippines",2,6
Hai San Seafood Market And Restaurant," San Jose Road, Zamboanga, 7000 Zamboanga del Sur, Philippines",2,6
Anzani Restaurant,"Panorama Heights, Nivel Hills, Lahug, Cebu City, 6000 Cebu, Philippines",2,7
Zubuchon,"One Mango Mall, General Maxilom Ave, Cebu City, 6000 Cebu, Philippines",2,7
Lantaw Restaurant,"Panagsama Beach, Moalboal, 6032 Cebu City, Philippines",2,7
Feria,"Radisson Blu Cebu, Sergio Osmena Boulevard, Corner Juan Luna Avenue, Cebu City, 6000 Cebu, Philippines",2,7
Lemon Grass Restaurant,"Ayala Center Cebu, Level 1, The Terraces, Cebu City, 6000 Cebu, Philippines",2,7
Yolk: Coffee & Breakfast,"80 Tres Broces Street, Mabolo, Cebu City, Philippines",2,7
The Pig & Palm,"MSY Tower, Pescadores Road, Cebu Business Park, Cebu City, Philippines",2,7
Birdseed Breakfast Club,"Unit F19, Axis Entertainment Ave, N. Escario Street, Cebu City, Philippines",2,7
Yakski Barbeque,"268 Don Mariano Cui Street, Capitol Site, Cebu City, Philippines",2,7
Bintana,"181-K Elizabeth Pond Street, Kamputhaw, Cebu City, Philippines",2,7
Ilaputi,"F17, Axis Entertainment Avenue, Escario Street, Capitol Site, Cebu City, Philippines",2,7
Warung Kapitolyo,"83 East Capitol Drive, Kapitolyo, Pasig City, Philippines",2,8
Masil,"Tiendesitas, Frontera Verde, Ortigas Avenue Corner C5, Ugong, Pasig City, Philippines",2,8
Locavore,"Brixton Technology Center, 10 Brixton Street, Kapitolyo, Pasig City, Philippines",2,8
Sibyullee,"Ground Floor, Ayala Malls The 30th, Meralco Avenue, Ugong, Pasig City, Philippines",2,8
Tittos Latin BBQ & Brew,"16 East Capitol Drive, Kapitolyo, Pasig City, Philippines",2,8
Mamou 3.0,"Ground Floor, Ayala Malls The 30th, Meralco Avenue, Ugong, Pasig City, Philippines",2,8
Cafe Juanita,"19 West Capitol Drive, Kapitolyo, Pasig City, Philippines",2,8
Mama Lou's Italian Kitchen,"Second Floor, Ayala Malls The 30th, Meralco Avenue, Ugong, Pasig City, Philippines",2,8
Pomodoro Pizza & Pasta Kitchen,"7 San Rafael Street, Kapitolyo, Pasig City, Philippines",2,8
The Cafe Mediterranean,"Basement 1, Estancia Mall, Capitol Commons, Oranbo, Pasig City, Philippines",2,8
Tipsy Pig Gastropub,"Capitol Commons, Meralco Avenue Corner Shaw Boulevard, Oranbo, Pasig City, Philippines",2,8
Ogawa Traditional Japanese Restaurant,"The Fort Strip, 5th Ave, Taguig, 1634 Metro Manila, Philippines",2,9
K-Pub BBQ,"5th Ave, Taguig, Metro Manila, Philippines",2,9
L'Opera Ristorante Italiano,"The Fort Entertainment Complex 26th cor. 7th Ave., Bonifacio Global City, Taguig, Metro Manila, Philippines",2,9
Early Night?,"2nd Floor Fort Strip, BGC, Ave, 5th, Taguig, Metro Manila, Philippines",2,9
Aracama,"The Fort Strip, 5th Avenue Corner 26th Street, Taguig, 1634 Metro Manila, Philippines",2,9
NIU by Vikings,"6th floor, SM Aura Premier, McKinley Parkway, Taguig, 1634 Metro Manila, Philippines",2,9
Raging Bull Chophouse & Bar,"30th Street Corner 5th Avenue, Bonifacio Global City, Taguig, 1634 Metro Manila, Philippines",2,9
Single Origin,"C3, Bonifacio Highstreet, 7th Ave, Taguig, 1634 Metro Manila, Philippines",2,9
Sariwon Korean Barbecue,"C2, Bonifacio High Street Central 7th Avenue corner, 29th St, Taguig, Metro Manila, Philippines",2,9
Sunnies Café,"Lane P, Taguig, Metro Manila, Philippines",2,9
Mamou,"Mcarthur Avenue Bonifacio Global City, Taguig, Market Market Loading/Unloading Bay, Taguig, Metro Manila, Philippines",2,9
Saboten,"G/F, Serendra, 11th Ave, Taguig, Kalakhang Maynila, Philippines",2,9
Wildflour Cafe + Bakery,"Ground Floor Six/NEO 5th Avenue, Corner 26th St, Taguig, Metro Manila, Philippines",2,9
Mendokoro Ramenba BGC,"Icon Plaza, RCBC Building, 26th St, Taguig, 1630 Metro Manila, Philippines",2,9
Cucina Higala,"222 Capistrano St, Cagayan de Oro, 9000 Misamis Oriental, Philippines",2,10
Resto Freeno,"Corner 17th Street and, 6th St, Cagayan de Oro, Misamis Oriental, Philippines",2,10
Circa Eatery,"G/F Red Planet Hotel, Claro M. Recto Avenue, Cagayan de Oro, 9000 Misamis Oriental, Philippines",2,10
Yakimix,"Cagayan Town Center, Capt. Vicente Roa St, Cagayan de Oro, Lalawigan ng Misamis Oriental, Philippines",2,10
Bigby's Cafe Restaurant,"SM Cagayan De Oro, Masterson Ave, Cagayan de Oro, 9000 Misamis Oriental, Philippines",2,10
Fat Monk,"5/F, SM CDO Downtown Premier, 88 Osmena St, de Oro, 9000, Cagayan de Oro, Misamis Oriental, Philippines",2,10
Coldzone by Yanna's - Chavez Street,"Miranda Building T Chavez Street, Divisoria Cagayan de Oro City",2,10
Resto Freeno,"Corner 17th Street and, 6th St, Cagayan de Oro, Misamis Oriental, Philippines",2,10
Circa 1850,"890 Recto Ave, Cagayan de Oro, 9000 Misamis Oriental, Philippines",2,10
BoJack's Seafood Grill,"President C. Garcia Street, P J.R. Borja Ext, Cagayan de Oro, Misamis Oriental, Philippines",2,10
ArmyNavy Burger + Burrito,"Level 2, Centrio Mall, Claro M. Recto Ave, Cagayan de Oro, 9000 Misamis Oriental, Philippines",2,10
