Name,Address,Country,City
Cafe BLD at Renaissance Johor Bahru Hotel,"2, Jalan Permas 11, Bandar Baru Permas Jaya, 81750 Johor Bahru, Johor, Malaysia",3,11
金龍咖哩魚頭,"74, Jalan Wong Ah Fook, Bandar Johor Bahru, 80000 Johor Bahru, Johor, Malaysia",3,11
Chez Papa French Bistro And Wine Bar,"38 and 40, Jalan Jaya, Taman Maju Jaya, 80400 Johor Bahru, Johor, Malaysia",3,11
Tosca Italian Trattoria,"12, Jalan Ngee Heng, Bandar Johor Bahru, 80000 Johor Bahru, Johor, Malaysia",3,11
Olive Kitchen Bar Puteri Harbour,"Lower Ground Floor, 11 & 12, Persiaran Puteri Selatan, Puteri Harbour, 79100 Nusajaya, Johor, Malaysia",3,11
德星茶餐室,"3&5, Jalan Sutera 1, Taman Sentosa, 80150 Johor Bahru, Johor, Malaysia",3,11
Zaituna Restaurant,"27, Jalan Glasiar, Taman Tasek, 80200 Johor Bahru, Johor, Malaysia",3,11
億家海鮮,"21 & 23, Jalan Indah 25/1, Taman Bukit Indah 2, 81200 Johor Bahru, Johor, Malaysia",3,11
Naughty Bali,"1, Jalan Serampang, Taman Sri Tebrau, 80050 Johor Bahru, Johor, Malaysia",3,11
Amaya Food Gallery,"82C, Jalan Trus, Bandar Johor Bahru, 80000 Johor Bahru, Johor, Malaysia",3,11
Restaurant Pekin @ Taman Sentosa,"38, Jalan Baldu 5, Taman Sentosa, 80150 Johor Bahru, Johor, Malaysia",3,11
Rosmarino Italian Restaurant,"65, Jalan Kuning 2, Taman Pelangi, 80400 Johor Bahru, Johor, Malaysia",3,11
Food Paradise City Square,"Lot J6-09, Level 6, Johor Bahru City Square, 106, Jalan Wong Ah Fook, Bandar Johor Bahru, 80000 Johor Bahru, Johor, Malaysia",3,11
George & Dragon Cafe Sdn. Bhd.,"No. 1 & 3, Jalan Glasiar, Taman Tasek, 80200 Johor Bahru, Johor, Malaysia",3,11
Sweetwater Mediterranean Bar & Grill,"116, Jalan Serampang, Taman Pelangi, 80400 Johor Bahru, Johor, Malaysia",3,11
Xuan Restaurant 聚軒,"88, Jalan Ibrahim Sultan, Taman Stulang, 80300 Johor Bahru, Johor, Malaysia",3,11
Cafe Jiran Kota Bharu,"Lot 485 Kampung Teluk Baru, Jalan Demit, 15200 Kota Bharu, Kelantan, Malaysia",3,12
Restoran Wau,"Pt 119, Aras Bawah, Jalan Tg. Petra Semerak, Seksyen 9, 15000 Kota Bharu, Kelantan, Malaysia",3,12
中國城市 吉蘭州,"7, Jln Kebun Sultan, Bandar Kota Bharu, 15300 Kota Bharu, Kelantan, Malaysia",3,12
Sun Two Restaurant,"782-A, Jalan Temenggong, Kelantan, 15000 Kota Bharu, Malaysia",3,12
Restoran Ni Dok Ko,"2527, B,GF, Jln Kebun Sultan, Bandar Kota Bharu, 15000 Kota Bharu, Kelantan, Malaysia",3,12
Kedai Kopi White House,"1329-L, Jln Sultanah Zainab, Bandar Kota Bharu, 15000 Kota Bharu, Kelantan, Malaysia",3,12
Restoran KST,"Lot 3118, Batu 4, Jalan Kuala Krai, Taman Desa Murni, 15150 Kota Bharu, Kelantan, Malaysia",3,12
Little Switzerland,"Lot 3949, Jalan Post Office Lama, Bandar Kota Bharu, 15000 Kota Bharu, Kelantan, Malaysia",3,12
Nasi Dagang Wakaf Bharu,"197, Jalan Puteri Saadong, 16210 Wakaf Bharu, Kelantan, Malaysia",3,12
Restoran Ni Dok Ko,"2527, B,GF, Jln Kebun Sultan, Bandar Kota Bharu, 15000 Kota Bharu, Kelantan, Malaysia",3,12
Nasi Kak Wok (Original),"213, Jalan Masjid Lundang, Kampung Lundang, 15150 Kota Bharu, Kelantan, Malaysia",3,12
冠亞酒家,"454, Jln Pengkalan Chepa, Bandar Kota Bharu, 15200 Kota Bharu, Kelantan, Malaysia",3,12
Restoran KST,"Lot 3118, Batu 4, Jalan Kuala Krai, Taman Desa Murni, 15150 Kota Bharu, Kelantan, Malaysia",3,12
九龙茶餐室 Kow Lun Restoran,"2, Jln Kebun Sultan, Bandar Kota Bharu, 15300 Kota Bharu, Kelantan, Malaysia",3,12
Restoran Solehah,"5473B, Jalan Dusun Muda, Kampung Dusun Muda, 15200 Kota Bharu, Kelantan, Malaysia",3,12
Manok Restaurant,"Lot 47, Kampung Mulong, 16010 Kota Bharu, Kelantan, Malaysia",3,12
FZ CAFÉ,"Lot 488/489, Rumah Kedai Lembah Sireh, D1, 15050 Kota Bharu, Kelantan, Malaysia",3,12
Nasi Kerabu Tumis Moksu Tini,"Lot 2216 Wakaf Haji Abdullah, Jalan Masjid, 15100 Kota Bharu, Kelantan, Malaysia",3,12
Malis Cafe & Restaurant,"AH18, Desa Sri Putra, 16210 Tumpat, Kelantan, Malaysia",3,12
Cheng Mai Thai Food Restoran 清迈泰式餐馆,"No.107, Kampung Kulim, Wakaf Bharu Tumpat, Kampung kulim, 16250 Wakaf Bharu, Kelantan, Malaysia",3,12
Wild Coriander Melaka (Pork Free Asian Restaurant),"40, Jalan Kampung Pantai, 75200 Melaka, Malaysia",3,13
My Homely Café,"297, Jalan Melaka Raya 2, Taman Melaka Raya, 75000 Melaka, Malaysia",3,13
馬六甲硬石餐廳,"28, Lorong Hang Jebat, 75200 Melaka, Malaysia",3,13
Manis J Nyonya Restaurant,"167, Jalan Bunga Raya, 75100 Melaka, Malaysia",3,13
Cottage Spices Nyonya Restaurant,"171, Jln Merdeka, Taman Melaka Raya, 75000 Melaka, Malaysia",3,13
Wa Zen Japanese Restaurant Sdn. Bhd.,"38, Jalan Melaka Raya 15, Taman Melaka Raya, 75000 Melaka, Malaysia",3,13
Southern Court Chinese Restaurant,"Bayview Hotel Melaka, No 55, Jalan Bendahara, Kampung Bukit China, 75100 Melaka, Malaysia",3,13
Salud Tapas,"94, Jalan Tun Tan Cheng Lock, 75300 Melaka, Malaysia",3,13
Sirocco Restaurant,"Holiday Inn, Jalan Syed Abdul Aziz, 75000 Melaka, Malaysia",3,13
The Baboon House,"89, Jalan Tun Tan Cheng Lock, Kampung Bukit China, 75200 Melaka, Malaysia",3,13
SamFu Restaurant,"108, Jalan Bunga Raya, Kampung Jawa, 75100 Melaka, Malaysia",3,13
Little Taiwan,"AEON Bandaraya Melaka, G59 & G60, No. 2, Jalan Lagenda, Taman I-Lagenda, 75400, Melaka, Melaka, 75400Malaysia",3,13
Restoran Nyonya Makko,"123, Jln Merdeka, Taman Melaka Raya, 75000 Melaka, Malaysia",3,13
Bulldog,"145, Jalan Bendahara, 75100 Melaka, Malaysia",3,13
Hakka Zhan Restaurant,"76, Jalan Laksamana 5, Taman Kota Laksamana, 75200 Melaka, Malaysia",3,13
Selvam Restaurant,"3, Jalan Temenggong, Bandar Hilir, 75100 Melaka, Malaysia",3,13
Miller's Kitchen Restaurant,"No.5 11, Seksyen 3,, Jalan KL 3/9, Taman Kota Laksamana, 75200 Melaka, Malaysia",3,13
Teo Soon Loong Seafood Restaurant,"Kompleks Perniagaan Kota Syahbandar, 42,44, Jalan KPKS 1, 75200 Melaka, Malaysia",3,13
東昇園海鮮家,"No. 377 & 378, Taman Melaka Raya, 75000 Melaka, Malaysia",3,13
Makan Nyonya,"Jalan Merdeka, Bandar Hilir, Melaka Raya, 75000, Malacca, Malaysia",3,13
FLOYD KITCHEN MELAKA,"No 5, Jln Lagenda 3, Taman 1 - Lagenda, 75400 Melaka, Malaysia",3,13
素林素食餐廳民宿,"3, Jalan Kampung Kuli, 75200 Melaka, Malaysia",3,13
Bayonya Restaurant,"164, Jalan Taman Melaka Raya, 75000, Melaka, Melaka, 75000Malaysia",3,13
中泰食館,"No. 267 & 267A, Jalan Melaka Raya 3, Taman Melaka Raya, Melaka, 75000 Malacca, Malaysia",3,13
Restaurant Lee Swee Meng,"Jalan Melaka Raya 35, Taman Melaka Raya, 75000 Melaka, Malaysia",3,13
Restoran Saravanna - Chettinadu King,"18, Jalan Bendahara, Kampung Bukit China, 75100 Melaka, Malaysia",3,13
The River Grill,"88, Jalan Kota Laksamana, Melaka, 75200 Melaka, Malaysia",3,13
Lanun's Cafe Melaka,"No. 19, Jalan Ttc 26A, Taman Teknologi Cheng, 75250 Cheng, Melaka, Malaysia",3,13
LET'S GO 52 PULAU MELAKA,"G88 & 89, RIVIERA@PULAU MELAKA, Jalan Baiduri 1, Taman Pulau Melaka, 75000, Malacca, Malaysia",3,13
Nancy's Kitchen,"No 13, Jalan KL 3/8, Taman Kota Laksamana, 75200 Melaka, Malaysia",3,13
City Famous Seafood,"No. 500, Taman Melaka Raya, 75000, Melaka, Melaka, Malaysia",3,13
Kocik Kitchen 小姑娘惹餐館,"100, Jalan Tun Tan Cheng Lock, 75200 Melaka, Malaysia",3,13
Modern World Restaurant,"NO 12, Jln KSB 1, TAMAN KOTA SYAHBANDAR, 75200 Melaka, Malaysia",3,13
馬來西亞十三州咖啡,"11, Jalan Hang Kasturi, 75250 Melaka, Malaysia",3,13
Ibis Kampung Restaurant by Ibis Melaka,"249, Jalan Bendahara, Kampung Bukit China, 75100 Melaka, Malaysia",3,13
River View Café,"80 & 82, Jalan Kampung Pantai, 75200 Melaka, Malaysia",3,13
The Limau Purut @ Dataran Pahlawan Melaka,"LOT G065, Upper Ground Floor Dataran Pahlawan Melaka Megamall, Bandar Hilir, 75000, Melaka, Malaysia",3,13
大西洋菜館,"145, Jalan Kubu, Kampung Satu, 75300 Melaka, Malaysia",3,13
Yes Thai Restaurant Malacca,"7, Jalan KL 3/10A, Taman Mahajaya, 75300 Centre, Melaka, Malaysia",3,13
Restoran Negeri,"Jalan Tuanku Munawir, Bandar Seremban, 70000 Seremban, Negeri Sembilan, Malaysia",3,14
Restoran Selera Nogori,"602&603, Jalan Haruan 4/8, Oakland Commercial Centre, 70300 Seremban, Negeri Sembilan, Malaysia",3,14
Jigger & Shaker,"PT 12653, Jalan Pusat Dagangan Sendayan, 1, Bandar Sri Sendayan, 71950 Seremban, Negeri Sembilan, Malaysia",3,14
Aunty Aini's Garden Café,"Batu 16, Kampung Chelet, 71800 Nilai, Negeri Sembilan, Malaysia",3,14
Negri Restaurant,"16, Jalan Tuanku Munawir, Negeri Sembilan, 70000 Seremban, Malaysia",3,14
Restoran Dpantai,"Lot 1, Batu 6, Jalan Pantai, 71770 Seremban, Negeri Sembilan, Malaysia",3,14
Hadramawt Emirates Restaurant,"PT 10871, Persiaran 1 Sendayan Utama Pusat Dagangan Sendayan, Bandar Sri Sendayan, 71950 Sendayan, Negeri Sembilan, Malaysia",3,14
ZAINI SALAI HOUSE ULU BENDUL,"No. 33A Kampung Ulu bendul, 71500 Tanjung Ipoh, Negeri Sembilan, Malaysia",3,14
City Park Oriental Seremban 2,"111, 102, Jalan S2 D32, Seremban 2, 70300 Seremban, Negeri Sembilan, Malaysia",3,14
"Aljamal Restaurant, Nilai","AL Jamal Restaurant Nilai, Avenue 9, Giant Nilai, Shop A 27 & A 28 014 3861, 450, Jalan BBN 1/3, Bandar Baru Nilai, 71800 Nilai, Negeri Sembilan, Malaysia",3,14
RESTORAN NS,"1355, Lorong Cengal 3/2, Taman Bukit Ampangan, 70400 Seremban, Negeri Sembilan, Malaysia",3,14
Kensington Western Restaurant,"34, Jalan Era Square 3, Era Square, 70200 Seremban, Negeri Sembilan, Malaysia",3,14
Restoran Sega,"90 Jalan PP 5, Bandar Prima, 70450 Seremban, Negeri Sembilan, Malaysia",3,14
Joint Kitchen,"Jalan S2 B16, Seremban 2, 70300 Seremban, Negeri Sembilan, Malaysia",3,14
Restoran Eden Hakka,"Malaysia Negeri Sembilan, Seremban, Kampung Kayu Ara, Jalan Kayu Ara邮政编码: 70300",3,14
Hay Yan Hu Da Opah's Kitchen & Garden,"44, Kampung Bukit Temiang, 70200 Seremban, Negeri Sembilan, Malaysia",3,14
Seremban Seafood Yesoon Restaurant,"Lot 3794, 3795, Jalan Tuanku Munawir, 70000 Seremban, Negeri Sembilan, Malaysia",3,14
Pine&Dine,"Lavendar Heights, 70400 Seremban, Negeri Sembilan, Malaysia",3,14
"La Playa, Bar & Restaurant","Lot 43 Batu, 4, Jalan Pantai, 71000 Port Dickson, Negeri Sembilan, Malaysia",3,14
N9 Container Café,"No 99, Persiaran S2 B1, Seremban 2, 70300 Seremban, Negeri Sembilan, Malaysia",3,14
Asiatique Restaurant,"Lobby Floor, Royale Chulan Seremban, Jalan Dato A.S Dawood, 70100 Seremban, Negeri Sembilan, Malaysia",3,14
Kemayan Curry House,"164, Jalan Toman 8, Kemayan Square, 70200 Seremban, Negeri Sembilan, Malaysia",3,14
Han Pi Yuen Restaurant,"Mezzanine Floor, The Royale Bintang Seremban, Jalan Dato A.S. Dawood, 70100, Seremban, Negeri Sembilan, 70100Malaysia",3,14
AFT Café,"1, Persiaran, Jalan Ainsdale 1/5, Bandar Baru Ainsdale, 70200 Seremban, Negeri Sembilan, Malaysia",3,14
As Sofa Cafe (Seremban)," D-08, 01, Jalan Dataran Sentral 2, Dataran Sentral, 70200 Seremban, Negeri Sembilan, Malaysia",3,14
Blossom Thai Restaurant,"3836, Ground Floor, Jalan Rasah Jaya 6/8, Taman Rasah Jaya, 70300 Seremban, Negeri Sembilan, Malaysia",3,14
Restoran Al Hussain Bistro,"5, Jalan Tmn Komersial Senawang, Taman Komersil Senawang, 70450 Seremban, Negeri Sembilan, Malaysia",3,14
珍寶酒樓舊區,"1958, Jalan Temiang, Taman Unian, 70200 Seremban, Negeri Sembilan, Malaysia",3,14
Shamr Restaurant Nilai,"LK4-1-08, Laman Komersial Areca, Putra Nilai, 71800 Nilai, Negeri Sembilan, Malaysia",3,14
D'Oasis PD Restaurant,"4-G-25, Persiaran Waterfront, Kampung Bahasa Kapor, 71000 Port Dickson, Negeri Sembilan, Malaysia",3,14
好記家鄉小食，Hou Kee Restaurant,"6526, Jalan Rasah, Bukit Rasah, 70300 Seremban, Negeri Sembilan, Malaysia",3,14
9 Lakes Restaurant,"Lot 4198, Jalan Desajaya 1, Taman Tasik Jaya, 70400 Seremban, Negeri Sembilan, Malaysia",3,14
Restoran Tomyam Kuali Emas,"31, Jalan Coco Drive 1, Industri Tunku Jaafar 1, 70450 Seremban, Negeri Sembilan, Malaysia",3,14
Restoran Bunga Lawang,"11390, Jalan BBN 6/2b, Desa Cempaka, 71800 Nilai, Negeri Sembilan, Malaysia",3,14
Win Jun Restoran,"No. 156, Jalan S2 G2, Garden Avenue Seremban 2, 70300 Seremban, Negeri Sembilan, Malaysia",3,14
合發茶餐室,"333, Jalan Besar, Kampung Seri Mantin, 71700 Mantin, Negeri Sembilan, Malaysia",3,14
Crab Restoran Gaban,"21, Jln Zaaba, Bandar Seremban, 70100 Seremban, Negeri Sembilan, Malaysia",3,14
Sri Inai Cafe 2,"PT 12894 Bawah, Jalan 1/7F BBN Putra Indah Fasa 3A Bandar Baru Nilai, 71800 Nilai, Negeri Sembilan, Malaysia",3,14
ATOK D'RIVER,"N.sembilan, 183-1, Jalan Tuanku Antah, 70100 Seremban, Negeri Sembilan, Malaysia",3,14
興發茶餐室,"Jalan BBN 4/1a, Taman Desa Jasmin, 71800 Nilai, Negeri Sembilan, Malaysia",3,14
Crocodile Rock Pizza & Grill,"1, 4360B, Lorong Dato Mahmud, Off, Jalan Teluk Sisek, 25050 Kuantan, Pahang, 馬來西亞",3,15
Mint Restaurant Kuantan,"26080 Balok, Pahang, 馬來西亞",3,15
關丹乞丐雞海鮮飯店,"Lot 7695 & 7696, Jalan Kubang Buaya, Taman Mariana, 25300 Kuantan, Pahang, 馬來西亞",3,15
Swan Seafood Restaurant 天鵝酒家,"Ground Floor, Hotel Grand Continental, Jalan Gambut, 25000 Kuantan, Pahang, 馬來西亞",3,15
Sungai Lembing Mining Restaurant 顺风饭店,"23, Jalan Sungai Lembing, Sungai Lembing, 26200 Sungai Lembing, Pahang, 馬來西亞",3,15
海天飯店,"Lot 4748, Jalan Berserah, Taman Teluk Sisik, 25250 Kuantan, Pahang, 馬來西亞",3,15
Cherating Steakhouse Restaurant,"Jalan Beserah, Kampung Alor Akar, 25300 Kuantan, Pahang, 馬來西亞",3,15
Restoran Sin Tong Kok,"No. 23, Jalan SJ 5/1, Seri Jaya, 26500 Maran, Pahang, 馬來西亞",3,15
Restoran Hoi Yin,"No. 31, Jalan Telok Cempedak, 25050 Kuantan, Pahang, 馬來西亞",3,15
Howin Seafood Restaurant,"274, Jalan Air Putih, 25300 Kuantan, Pahang, 馬來西亞",3,15
Restoran Zaman (Kuantan),"Lot 1-3811, KM14, 26070, Jalan Gambang, 25150 Kuantan, Pahang, 馬來西亞",3,15
Restoran Mei Hiong,"52B, Jalan Tanjung Api, Padang Lalang, 25050 Kuantan, Pahang, 馬來西亞",3,15
COFFEE BEAN," JALAN PERUSAHAAN,   AUTOCITY,  13600,  PRAI,  PULAU PINANG",3,16
STARBUCKS COFFEE," JALAN TENGKU KUDIN 2,   11700,  GLUGOR,  PULAU PINANG",3,16
STARBUCKS COFFEE,"NO.118,  JALAN TANJONG TOKONG,   10470,  TANJONG TOKONG,  PULAU PINANG",3,16
COFFEE BEAN,"NO.118,  JALAN TANJONG TOKONG,   10470,  TANJONG TOKONG,  PULAU PINANG",3,16
COFFEE BEAN," JALAN BURMA,   10350,  GEORGE TOWN,  PULAU PINANG",3,16
STARBUCKS COFFEE," PERSIARAN GURNEY,   10250,  GEORGE TOWN,  PULAU PINANG",3,16
COFFEE BEAN," PERSIARAN GURNEY,   10250,  GEORGE TOWN,  PULAU PINANG",3,16
STARBUCKS COFFEE,"100,  PERSIARAN BAYAN INDAH,   11900,  BAYAN LEPAS,  PULAU PINANG",3,16
STARBUCKS COFFEE,"100,  PERSIARAN BAYAN INDAH,   11900,  BAYAN LEPAS,  PULAU PINANG",3,16
STARBUCKS COFFEE,"3068,  JALAN TODAK,   PUSAT BANDAR SEBERANG JAYA,  13700,  SEBERANG JAYA,  PULAU PINANG",3,16
COFFEE BEAN,"100,  PERSIARAN BAYAN INDAH,   11900,  BAYAN LEPAS,  PULAU PINANG",3,16
OLDTOWN WHITE COFFEE,"100,  PERSIARAN BAYAN INDAH,   11900,  BAYAN LEPAS,  PULAU PINANG",3,16
GEORGE TOWN WHITE COFFEE," JALAN DR LIM CHWEE LEONG,   10000,  GEORGE TOWN,  PULAU PINANG",3,16
COFFEE BEAN,"168A,  PERSIARAN GURNEY,   10250,  GEORGE TOWN,  PULAU PINANG",3,16
OLDTOWN WHITE COFFEE," JALAN TENGKU KUDIN 2,   11700,  GLUGOR,  PULAU PINANG",3,16
OLDTOWN WITHE COFFEE," MEDAN ANGSANA 3,   BANDAR BARU AYER ITAM,  11500,  AYER ITAM,  PULAU PINANG",3,16
OLDTOWN WHITE COFFEE," JALAN PANTAI,   10200,  GEORGE TOWN,  PULAU PINANG",3,16
OLDTOWN WHITE COFFEE," JALAN PERAK,   11600,  JELUTONG,  PULAU PINANG",3,16
OLDTOWN WHITE COFFEE,"NO.62,  JALAN MAYANG PASIR 1,OFF JLN MAHSURI,   BAYAN BARU,  11950,  BAYAN LEPAS,  PULAU PINANG",3,16
ROTI BAKAR KOPITIAM," HALAMAN BUKIT GAMBIR,   11700,  GLUGOR,  PULAU PINANG",3,16
ROTI BAKAR KOPITIAM," JALAN DATO' KERAMAT,   10500,  GEORGE TOWN,  PULAU PINANG",3,16
OLDTOWN WHITE COFFEE,"2828,  JALAN BARU,   13600,  PRAI,  PULAU PINANG",3,16
AUSTIN CHACE COFFEE,"100,  PERSIARAN BAYAN INDAH,   11900,  BAYAN LEPAS,  PULAU PINANG",3,16
STARBUCKS COFFEE,"NO.182,  JALAN MAGAZINE,   10000,  GEORGE TOWN,  PULAU PINANG",3,16
DOME CAFE," PERSIARAN GURNEY,   10250,  GEORGE TOWN,  PULAU PINANG",3,16
STARBUCKS COFFEE," JALAN DR.LIM CHWEE LEONG,   10100,  GEORGE TOWN,  PULAU PINANG",3,16
OLDTOWN WHITE COFFEE,"NO.14,  LORONG TERAS JAYA 8,  KAWASAN PERNIAGAAN TERAS JAYA ,  13400,  BUTTERWORTH,  PULAU PINANG",3,16
J.CO DONUTS & COFFEE,"100,  PERSIARAN BAYAN INDAH,   11900,  BAYAN LEPAS,  PULAU PINANG",3,16
WINTERS WARMERS COFFEE & TEA HOUSE,"100,  PERSIARAN BAYAN INDAH,   11900,  BAYAN LEPAS,  PULAU PINANG",3,16
DOME CAFE,"100,  PERSIARAN BAYAN INDAH,   11900,  BAYAN LEPAS,  PULAU PINANG",3,16
THE WHITE HOUSE COFFEE," JALAN RUMBIA,   11900,  BAYAN LEPAS,  PULAU PINANG",3,16
KOPITAN CLASSIC WHITE COFFEE,"LOT 10053,  JALAN TODAK 6,   SUNWAY PERDANA,  13700,  SEBERANG JAYA,  PULAU PINANG",3,16
HOMESTYLE KOPITIAM,"462,  JALAN PERMATANG JAWA,   14000,  BUKIT MERTAJAM,  PULAU PINANG",3,16
WINTERS WARMERS COFFEE & TEA HOUSE,"3068,  JALAN TODAK,   PUSAT BANDAR SEBERANG JAYA,  13700,  SEBERANG JAYA,  PULAU PINANG",3,16
HOMESTYLE KOPITIAM,"2795,  JALAN CHAIN FERRY,  TAMAN INDERWASIH ,  13600,  PRAI,  PULAU PINANG",3,16
SWENZ KOPITIAM,"NO.48,  JALAN TODAK 2,   PUSAT BANDAR SEBERANG JAYA,  13700,  SEBERANG JAYA,  PULAU PINANG",3,16
HOMESTYLE KOPITIAM,"NO.11,  JALAN TODAK 3,   PUSAT BANDAR SEBERANG JAYA,  13700,  SEBERANG JAYA,  PULAU PINANG",3,16
OLDTOWN WHITE COFFEE,"NO.47,  JALAN TODAK 2,   SUNWAY PERDANA,  13700,  SEBERANG JAYA,  PULAU PINANG",3,16
TRAIN STATION COFFEE,"NO.40,  JALAN TODAK 3,   PUSAT BANDAR SEBERANG JAYA,  13700,  SEBERANG JAYA,  PULAU PINANG",3,16
STATION ONE COFFEE,"NO.3203,  JALAN MAJU,  TAMAN MAJU UTAMA ,  13700,  BUKIT MERTAJAM,  PULAU PINANG",3,16
STARBUCKS COFFEE," JALAN PERUSAHAAN,   AUTOCITY,  13600,  PRAI,  PULAU PINANG",3,16
DOME CAFE," JALAN SRI TANJONG PINANG,   10470,  TANJONG TOKONG,  PULAU PINANG",3,16
OLDTOWN WHITE COFFEE," JALAN PERUSAHAAN,   AUTOCITY,  13600,  PRAI,  PULAU PINANG",3,16
OLDTOWN WHITE COFFEE," LORONG MAJU UTAMA 2,  PUSAT PERNIAGAAN MAJU UTAMA ,  14000,  BUKIT MERTAJAM,  PULAU PINANG",3,16
WINTERS WARMERS COFFEE & TEA HOUSE," JALAN PERUSAHAAN,   AUTOCITY,  13600,  BUKIT MERTAJAM,  PULAU PINANG",3,16
ROTI BAKAR KOPITIAM," LEBUHRAYA THEAN TEIK,   11500,  AYER ITAM,  PULAU PINANG",3,16
COFFEE BEAN," JALAN SRI TANJONG PINANG,   10470,  TANJONG TOKONG,  PULAU PINANG",3,16
STARBUCKS COFFEE," JALAN SRI TANJONG PINANG,   10470,  TANJONG TOKONG,  PULAU PINANG",3,16
KOPITAN CLASSIC WHITE COFFEE,"NO.4A/B,  LEBUH PANTAI,   10500,  GEORGE TOWN,  PULAU PINANG",3,16
OLDTOWN WHITE COFFEE,"LOT 536,  JALAN LEBUH PANTAI,   10500,  GEORGE TOWN,  PULAU PINANG",3,16
APEX COFFEE,"NO.2,  LORONG TERAS JAYA 8,  KAWASAN PERNIAGAAN TERAS JAYA ,  13400,  BUTTERWORTH,  PULAU PINANG",3,16
KOPITAN CLASSIC WHITE COFFEE,"LOT 4535,  TINGKAT BUKIT MINYAK 9,  TAMAN BUKIT MINYAK ,  14000,  BUKIT MERTAJAM,  PULAU PINANG",3,16
KOPITAN CLASSIC WHITE COFFEE,"NO.1,  MEDAN SERI IMPIAN 1,  PUSAT PERNIAGAAN SERI IMPIAN ,  14000,  BUKIT MERTAJAM,  PULAU PINANG",3,16
WHO'S BRYAN COFFEE & CUISINE," LEBUHRAYA THEAN TEIK,   11500,  AYER ITAM,  PULAU PINANG",3,16
D'HERITAGE COFFEE & CHOCOLATE HOUSE," LORONG HASSAN ABBAS 6,   11050,  TELUK BAHANG,  PULAU PINANG",3,16
STARBUCKS COFFEE,"NO.4G,  JALAN PANTAI MOLEK,   10470,  TANJONG TOKONG,  PULAU PINANG",3,16
BLACK CANYON COFFEE," PERSIARAN GURNEY,   10250,  GEORGE TOWN,  PULAU PINANG",3,16
WINTERS WARMERS COFFEE & TEA HOUSE," PERSIARAN GURNEY,   10250,  GEORGE TOWN,  PULAU PINANG",3,16
OLDTOWN WHITE COFFEE," PERSIARAN GURNEY,   10250,  GEORGE TOWN,  PULAU PINANG",3,16
KOPITAN CLASSIC WHITE COFFEE," PERSIARAN GURNEY,   10250,  GEORGE TOWN,  PULAU PINANG",3,16
PACIFIC COFFEE COMPANY,"NO.163D,  PERSIARAN GURNEY,   10250,  GEORGE TOWN,  PULAU PINANG",3,16
STARBUCKS COFFEE,"NO.163D,  PERSIARAN GURNEY,   10250,  GEORGE TOWN,  PULAU PINANG",3,16
PINANG KOPITIAM,"LOT 7588,  JALAN  SULTAN AZLAN SHAH,   11900,  BAYAN LEPAS,  PULAU PINANG",3,16
OLDTOWN WHITE COFFEE,"LOT 7588,  JALAN  SULTAN AZLAN SHAH,   11900,  BAYAN LEPAS,  PULAU PINANG",3,16
STARBUCKS COFFEE,"LOT 7588,  JALAN  SULTAN AZLAN SHAH,   11900,  BAYAN LEPAS,  PULAU PINANG",3,16
KOPITAN CLASSIC WHITE COFFEE,"NO.139,  JALAN LEBUH CARNARVON,   10200,  GEORGE TOWN,  PULAU PINANG",3,16
BIG APPLE DONUTS & COFFEE," JALAN ROZHAN ALMA,   14000,  BUKIT MERTAJAM,  PULAU PINANG",3,16
WINTERS WARMERS COFFEE & TEA HOUSE," JALAN ROZHAN ALMA,   14000,  BUKIT MERTAJAM,  PULAU PINANG",3,16
STARBUCKS COFFEE," JALAN ROZHAN ALMA,   14000,  BUKIT MERTAJAM,  PULAU PINANG",3,16
OLDTOWN WHITE COFFEE,"LOT NO 9-1 & 11-1,  JALAN DAGANGAN 7,   PUSAT BANDAR BERTAM PERDANA,  13200,  KEPALA BATAS,  PULAU PINANG",3,16
STARBUCKS COFFEE,"LOT 555,  KARPAL SINGH DRIVE,   BANDAR SRI PINANG,  11600,  GEORGE TOWN,  PULAU PINANG",3,16
KAFFA ESPRESSO BAR,"LOT 7588,  JALAN  SULTAN AZLAN SHAH,   11900,  BAYAN LEPAS,  PULAU PINANG",3,16
KOPITAN CLASSIC WHITE COFFEE,"NO.30,  LORONG TERAS JAYA 8,  KAWASAN PERNIAGAAN TERAS JAYA ,  13400,  BUTTERWORTH,  PULAU PINANG",3,16
WHO'S BRYAN COFFEE & CUISINE,"NO.65,  LORONG TERAS JAYA 2,  KAWASAN PERNIAGAAN TERAS JAYA ,  13400,  BUTTERWORTH,  PULAU PINANG",3,16
BIG APPLE DONUTS & COFFEE,"3068,  JALAN TODAK,   PUSAT BANDAR SEBERANG JAYA,  13700,  SEBERANG JAYA,  PULAU PINANG",3,16
KOPITAN CLASSIC WHITE COFFEE,"NO.1,  JALAN PERNIAGAAN GEMILANG 1,  PUSAT PERNIAGAAN GEMILANG ,  14000,  BUKIT MERTAJAM,  PULAU PINANG",3,16
KOPITAN CLASSIC WHITE COFFEE," JALAN MAYANG PASIR 3,  ELIT AVENUE ,  11950,  BAYAN LEPAS,  PULAU PINANG",3,16
BLACKWOOD COFFEE AND CHOCOLATE,"NO.1720,  PERSIARAN MUTIARA 4,   BANDAR TASEK MUTIARA,  14120,  SIMPANG AMPAT,  PULAU PINANG",3,16
STARBUCKS COFFEE,"NO.218,  JALAN ICON CITY DT,   ICON CITY,  14000,  BUKIT MERTAJAM,  PULAU PINANG",3,16
STARBUCKS COFFEE,"NO.69,  JALAN BATU FERRINGHI,   11100,  BATU FERRINGGI,  PULAU PINANG",3,16
WINTERS WARMERS COFFEE & TEA HOUSE," JALAN SRI TANJONG PINANG,   10470,  TANJONG TOKONG,  PULAU PINANG",3,16
STARBUCKS COFFEE," JALAN SULTAN AHMAD SHAH,   10050,  GEORGE TOWN,  PULAU PINANG",3,16
COFFEE BEAN,"NO.1,  JALAN PANGKOR,   10050,  TANJONG TOKONG,  PULAU PINANG",3,16
COFFEE BEAN," LEBUH TUNKU KUDIN 2,   11700,  GLUGOR,  PULAU PINANG",3,16
KOPITAN CLASSIC WHITE COFFEE," JALAN SUNGAI DUA,   11700,  GLUGOR,  PULAU PINANG",3,16
KOPITAN CLASSIC WHITE COFFEE,"100,  PERSIARAN BAYAN INDAH,   11900,  BAYAN LEPAS,  PULAU PINANG",3,16
ECC COFFEE," JALAN KELAWAI,   10250,  GEORGE TOWN,  PULAU PINANG",3,16
STARBUCKS COFFEE,"NO.733,  JALAN CASSIA BARAT 2,   BANDAR CASSIA,  14110,  BATU KAWAN,  PULAU PINANG",3,16
COFFEE BEAN,"NO.733,  JALAN CASSIA BARAT 2,   BANDAR CASSIA,  14110,  BATU KAWAN,  PULAU PINANG",3,16
BIG APPLE DONUTS & COFFEE,"LOT NO G11,  JALAN BARU,   13600,  BUKIT MERTAJAM,  PULAU PINANG",3,16
KOPITAN CLASSIC WHITE COFFEE,"NO.1720,  PERSIARAN MUTIARA 4,   BANDAR TASEK MUTIARA,  14120,  SIMPANG AMPAT,  PULAU PINANG",3,16
COFFEE BEAN,"LOT 555,  KARPAL SINGH DRIVE,   BANDAR SRI PINANG,  11600,  GEORGE TOWN,  PULAU PINANG",3,16
STARBUCKS COFFEE," JALAN GREEN HALL,   10200,  GEORGE TOWN,  PULAU PINANG",3,16
COFFEE SMITH,"LOT 555,  KARPAL SINGH DRIVE,   BANDAR SRI PINANG,  11600,  GEORGE TOWN,  PULAU PINANG",3,16
ST PRESSO COFFEE," JALAN MAYANG PASIR 3,  ELIT AVENUE ,  11950,  BAYAN LEPAS,  PULAU PINANG",3,16
FRANK LAURENT COFFEE ROASTERS," LEBUH TENGKU KUDIN 3,   11700,  GLUGOR,  PULAU PINANG",3,16
ST PRESSO COFFEE," LEBUH CHULIA,   10200,  GEORGE TOWN,  PULAU PINANG",3,16
STARBUCKS COFFEE,"172,  SOLOK GURNEY 1,   10250,  GEORGE TOWN,  PULAU PINANG",3,16
BIG APPLE DONUTS & COFFEE,"NO.1,  JALAN SERI TANJUNG PINANG,   10470,  TANJONG TOKONG,  PULAU PINANG",3,16
OLDTOWN WHITE COFFEE," LEBUHRAYA THEAN TEIK,   11500,  AYER ITAM,  PULAU PINANG",3,16
PBC COFFEE,"NO.118,  JALAN TANJONG TOKONG,   10470,  TANJONG TOKONG,  PULAU PINANG",3,16
STARBUCKS COFFEE,"LOT 70660,  PERSIARAN RAJAWALI,  KAMPUNG PERLIS ,  11900,  BAYAN LEPAS,  PULAU PINANG",3,16
BIG APPLE DONUTS & COFFEE," JALAN RUMBIA,   11900,  BAYAN LEPAS,  PULAU PINANG",3,16
DOUTOR COFFEE," PERSIARAN GURNEY,   10250,  GEORGE TOWN,  PULAU PINANG",3,16
J.CO DONUTS & COFFEE,"168A,  PERSIARAN GURNEY,   10250,  GEORGE TOWN,  PULAU PINANG",3,16
PBC COFFEE,"182,  JALAN MAGAZINE,   10000,  GEORGE TOWN,  PULAU PINANG",3,16
STARBUCKS COFFEE,"403,  JALAN BURMA,   PULAU TIKUS,  10350,  GEORGE TOWN,  PULAU PINANG",3,16
BREAD KING COFFEE," PERSIARAN MAHSURI,   BANDAR BAYAN BARU,  11900,  BAYAN LEPAS,  PULAU PINANG",3,16
KAFFA ESPRESSO BAR (SIGNATURE),"3068,  JALAN TODAK,   PUSAT BANDAR SEBERANG JAYA,  13700,  SEBERANG JAYA,  PULAU PINANG",3,16
KAFFA ESPRESSO BAR (SIGNATURE)," JALAN PERUSAHAAN,   AUTO CITY PHASE 3,  13600,  PRAI,  PULAU PINANG",3,16
STARBUCKS COFFEE," JALAN SETIA PRIMA,  TAMAN SUTERA PRIMA ,  13700,  PERAI,  PULAU PINANG",3,16
STARBUCKS COFFEE,"3,  JALAN RAJA UDA,   BUTTERWORTH BUSINESS CITY CENTRE JALAN RAJA UDA,  12300,  BUTTERWORTH,  PULAU PINANG",3,16
COFFEE TIME CAFE,"3,  JALAN RAJA UDA,   BUTTERWORTH BUSINESS CITY CENTRE JALAN RAJA UDA,  12300,  BUTTERWORTH,  PULAU PINANG",3,16
WINTERS WARMERS COFFEE & TEA HOUSE," LEBUHRAYA THEAN TEIK,   BANDAR AYER ITAM,  11500,  AYER ITAM,  PULAU PINANG",3,16
STATION KOPITIAM," PERSIARAN GURNEY,   10250,  GEORGE TOWN,  PULAU PINANG",3,16
STARBUCKS COFFEE,"100,  PERSIARAN BAYAN INDAH,   11900,  BAYAN LEPAS,  PULAU PINANG",3,16
FRANK LAURENT COFFEE ROASTERS," PERSIARAN GURNEY,   10250,  GEORGE TOWN,  PULAU PINANG",3,16
STARBUCKS COFFEE," TINGKAT MAHSURI,   I-IDEAL, BANDAR BAYAN BARU,  11950,  BAYAN LEPAS,  PULAU PINANG",3,16
BLACKWOOD COFFEE AND CHOCOLATE," JALAN BESAR,  TAMAN PERINDUTRIAN NIBONG TEBAL SEBERANG PERAI SELATAN,  14300,  NIBONG TEBAL,  PULAU PINANG",3,16
KOPITAN CLASSIC WHITE COFFEE," JALAN BESAR,  TAMAN PERINDUSTRIAN NIBONG TEBAL ,  14300,  NIBONG TEBAL,  PULAU PINANG",3,16
OLDTOWN WHITE COFFEE," JALAN DR.LIM CHWEE LEONG,   10100,  GEORGE TOWN,  PULAU PINANG",3,16
SK Kim 合莎馳名菜脯魚,"168e, Jalan Kampung Perak, Bandar Alor Setar, 05100 Alor Setar, Kedah, 馬來西亞",3,17
正宗泰式火鍋燒烤屋mookata,"馬來西亞 Kedah, Alor Setar, Jalan Pintu Sepuluh, No.邮政编码: 05150",3,17
金穀子海鮮餐廳,"Taman Padi Emas, 05300 Alor Setar, Kedah, 馬來西亞",3,17
Sky Garden Restro Bar & Coffee,"100, Rooftop, Wisma Profit Land, Jalan Kuala Kedah, 05050 Alor Setar, Kedah, 馬來西亞",3,17
黃鶴樓四川中餐廳,"No 6, Kompleks Perniagaan, Jalan Alor Mengkudu, Taman Saga, 05400 Alor Setar, Kedah, 馬來西亞",3,17
De Romansion Restaurant Sdn. Bhd. (Snowing Caffe),"3A, Jalan Limbong Kapal, Bandar Alor Setar, 05000 Alor Setar, Kedah, 馬來西亞",3,17
聚寶軒中泰素食之家,"A50 51, Taman Baru, Kampung Batin, 05150 Alor Setar, Kedah, 馬來西亞",3,17
Dede Moda Restaurant 潮记餐厅,"Taman Mergong Jaya, 05150 Alor Setar, Kedah, 馬來西亞",3,17
Putumayo Restaurant 復古海濱餐廳,"Lot 1584 Jalan Pantai Chenang Mukim Kedawang, Pantai Chenang, 07000 Pulau Langkawi, Kedah, 馬來西亞",3,17
Restaurant RT,"Jalan Tunku Abdul Halim, Taman Tunku Habsah, 05100 Alor Setar, Kedah, 馬來西亞",3,17
秀正宗越南餐厅,"馬來西亞马来西亚吉打no,109a ,pusat perdagangan tunku haminah邮政编码:邮政编码: 05150",3,17
咖哩魚頭(誠信花園),"Taman Setia Jaya, 05350 Alor Setar, Kedah, 馬來西亞",3,17
3 少爺 海南雞飯 Sam's Hainanese Chicken Rice,"MY Kedah Alor Setar Taman Sri Tandop, Jalan Lencong Barat, No.8705400馬來西亞",3,17
进诗中泰海鲜,"Plaza gunung indah, 05400 Alor Setar, Kedah, 馬來西亞",3,17
一路吃旺西餐之家,"84, Jalan Teratai, Taman Sultan Badlishah, 05050 Alor Setar, Kedah, 馬來西亞",3,17
NAMA RESTORAN,ALAMAT SURAT,3,18
GERAI PERNIAGAAN KG. PADANG KUNYIT,KG. PADANG KUNYIT JALAN LENGGONG,3,18
AZYZA ENTERPRISE,"NO 14 A, TAMAN SINARAN JALAN INTAN",3,18
EHWAN RESTORAN & BAKERY,"NO 8, TAMAN SINARAN JALAN INTAN",3,18
JUARA TOMYAM SATU,"NO 8A, BATU 99, JALAN LENNGONG,",3,18
RESTORAN BIDAH MESRA,"NO 7,JALAN BESAR, PEKAN LAWIN JALAN LENGGONG,",3,18
PAK MAT SATAY CORNER,"NO 1, KEDAI DUA TINGKAT PERSIARAN PASAR, JALAN PERSIARAN PASAR, ",3,18
RESTORAN BONGOR,"NO 29, JALAN TUN SABAN,",3,18
RESTORAN SRI BELIMBING,"NO 6, KADAI DUA TINGKAT PERSIARAN PASAR, JALAN PERSIARAN PASAR, ",3,18
RESTORAN SURIA,"RESTORAN SURIA JALAN KUALA RUI,",3,18
ISMAIL BIN AHMAD,"JALAN KUALA RUI, ",3,18
SUTIAM BINTI TURICAN,"NO 4, KEDAI DUA TINGKAT PERSIARAN PASAR, JALAN PERSIARAN PASAR, ",3,18
SELERA MINANG RESTORAN,"1, KEDAI MASJID, JALAN HAJI MEOR YAHAYA,",3,18
YUNUS CAFE TANDUK RUSA,"NO 4, KEDAI MASJID, JALAN HAJI MEOR YAHAYA,",3,18
SRI MALEE SEAFOOD,"NO 5, TAMAN SELAMAT JAYA, JALAN INTAN, ",3,18
RESTORAN SAJIAN MAMA,"NO 8, TAMAN SELAMAT JAYA, JALAN INTAN, ",3,18
RESTORAN KAK MA,"NO 31, JALAN TUN SABAN,",3,18
RESTORAN MAIL KOKDIANG,"3, KEDAI DUA TINGKAT PERSIARAN PASAR, JALAN PERSIARAN PASAR, ",3,18
RESTORAN PERDANA IMPIAN,"NO 1, KEDAI 2 TINGKAT, PUSAT BANDAR, ",3,18
RESTORAN HAJI ADAM,"NO 25, JALAN TAKONG DATOK, ",3,18
BELUM RAINFOREST MANAGEMENT SDN BHD,"BELUM RAINFOREST RESORT,BANDING JALAN KUALA RUI,",3,18
JP STAR RESTORAN,"LOT 9474, KM 1,JALANRAYA TIMUR BARAT, ",3,18
D MAMA STOP CENTRE,"LOT 8289, JALAN SUDA BAHAGIA JALAN INTAN",3,18
AZEEZ RESTORAN,"NO.185, JALAN TUN SABAN, ",3,18
RESTORAN LIMRA,"NO 11061,JALAN SUDA BAHAGIA, JALAN INTAN,",3,18
RESTORAN NASI KANDAR GERIK,"NO 8, JALAN DURIAN, TAMAN SINARAN, ",3,18
MAAHI NORA RESTORAN,"97, JALAN TAKONG DATOK,",3,18
RESTORAN THAIBAH,"57, JALAN TUN SABAN,",3,18
RESTORAN RIAZ,"NO 60 JALAN TUN SABAN,",3,18
RESTORAN AL SALAM,"LOT 887,RESTORAN AL SALAM JALAN INTAN,",3,18
RESTORAN KARI KEPALA IKAN SALIM,"JALAN INTAN,",3,18
RESTORAN KWEN WUA,"NO 22,JALAN DURIAN, TAMAN SINARAN JALAN INTAN,",3,18
LENG YUEN RESTAURANT,"NO 21,JALAN DURIAN, TAMAN SINARAN JALAN INTAN,",3,18
WONG YOKE LIN,"NO 7, TAMAN SINARAN JALAN INTAN,",3,18
RESTORAN YEAT LEE,"NO 23, TAMAN SINARAN JALAN INTAN,",3,18
WANG LIANG WU,"NO 38, JALAN TUN SABAN",3,18
LIM NGIOK HOCK,"NO 154, BATU DUA, KAMPUNG BATU DUA,",3,18
SEE LAI HOO,"NO 13, TAMAN SINARAN JALAN INTAN,",3,18
CHONG SENG CHIEW,"NO 54, JALAN TUN SABAN, ",3,18
LEE MOK SANG,"NO 70, JALAN TAKONG DATOK,",3,18
LIM CHIN HOCK,"108, BATU DUA, KAMPUNG BATU DUA",3,18
LUNG GI RESTORAN,"NO 8285,JALAN SUDA BAHAGIA JALAN INTAN,",3,18
RESTORAN YI BIN,"NO 47, JALAN TUN SABAN, ",3,18
RESTORAN SIN YEN BIN,"LOT 8320, JALAN INTAN,",3,18
THYE CHEONG,"LOT 887, JALAN INTAN,",3,18
XIAO SHI RESTAURANT,"NO 1415, JALAN BEKERY, TAMAN GERIK JALAN KUALA KENDERONG,",3,18
ONE ONE THREE RESTAURANT,"LOT 8279, JALAN SUDA BAHAGIA, JALAN INTAN,",3,18
RESTORAN HAO J MEI,"NO 1406, TAMAN GERIK, JALAN KULA KENDERONG,",3,18
RESTORAN TAMAN GERIK,"NO.1415,JALAN BUNGA SEROJA, TAMAN GERIK, ",3,18
SANNASY A/L SUBRAMANIAM,"NO. 3, GERAI MEDAN TAKONG FASA 1JALAN TOH MEKONG,",3,18
PALANIVELLO A/L ARIKIAPAN,"NO 5, GERAI HENTIAN BAS GERIK",3,18
Pelo Kitchen Yibin Food And Beverages,"Malaysia, Kangar, Taman Pengkalan Asam, Jalan Kangar - Alor Setar, 315,Tingkat Bawah,Perlis 01000",3,19
koria水上餐廳,"02000 Kuala Perlis, Perlis, Malaysia",3,19
Restoran Pin Ja ( 品佳海鮮飯店),"29, 7, Padang Besar, 02100 Padang Besar, Perlis, Malaysia",3,19
Hai Thien Seafood Restaurant 海天海鲜,"Jalab Jeti Baru, 02000 Kuala Perlis, Perlis, Malaysia",3,19
Hannah's Cookies,"Jalan Kaki Bukit, 01000 Kangar, Perlis, Malaysia",3,19
富源餐廳,"53, Jalan Gaya, Pusat Bandar Kota Kinabalu, 88000 Kota Kinabalu, Sabah, Malaysia",3,20
怡豐茶室,"127, Jalan Gaya, Pusat Bandar Kota Kinabalu, 88000 Kota Kinabalu, Sabah, Malaysia",3,20
大茄來海鮮餐廳,"Grand Industrial Centre, 89500 Penampang, Sabah, Malaysia",3,20
新記肉骨茶,"26, Jalan Pantai, pusat bandar, 88000 Kota Kinabalu, Sabah, Malaysia",3,20
佑記肉骨茶,"7, Jalan Gaya, Pusat Bandar Kota Kinabalu, 88000 Kota Kinabalu, Sabah, Malaysia",3,20
Peng You Cafe 朋友美食館,"38, Jalan Batu Kawa Bazaar, Batu Kawa, 93250 Kuching, Sarawak, Malaysia",3,21
Lok Garden Seafood 9,"No. 9, Jalan Batu Lintang, 93200 Kuching, Sarawak, Malaysia",3,21
Topspot Food Court,"off, Jalan Padungan, 93100 Kuching, Sarawak, Malaysia",3,21
中華美食站,"8526-8531, Lorong Kempas 6, Kempas Heights, 93350 Kuching, Sarawak, Malaysia",3,21
CX CAFE SDN. BHD,"110, Jalan Sekama, Sekama, 93300 Kuching, Sarawak, Malaysia",3,21
QUN HUA KUALA SELANGOR SEAFOOD RESTAURANT 群華瓜雪海鮮酒家," NO.1 A JALAN BAGAN SUNGAI YU PASIR PENAMBANG 45000 KUALA SEALNGOR, Pasir Penambang, 45000 Kuala Selangor, Selangor, Malaysia",3,22
沙沙蘭阿娟美食館,"41, Jalan Kapar, Sungai Buloh, 45800 Jeram, Selangor, Malaysia",3,22
揾到食海鮮餐館,"8, Jln Peninsular Utama 1, Pasir Penambang, 45000 Kuala Selangor, Selangor, Malaysia",3,22
Brother Yat Restaurant,"B1-765, Jalan Subang 4, Ultramine Industrial Park, 47500 Subang Jaya, Selangor, Malaysia",3,22
冲头仔美食馆 Calvin Hot Wok,"红砖店, 36-GF, Lorong Dato Yusuf Shahbudin 44c, Taman Sentosa, 41200 Klang, Selangor, Malaysia",3,22
美夫人原鄉館,"177, Jalan Kampung Cina, 20100 Kuala Terengganu, Terengganu, Malaysia",3,23
美鳳姐咖哩面,"178, Jalan Kampung Cina, Kampung Banggul, 20100 Kuala Terengganu, Terengganu, Malaysia",3,23
Food Gallery 美食阁,"Jalan Cerong Lanjut, 20300 Kuala Terengganu, Terengganu, Malaysia",3,23
Restoran Uncle Chua Signature,"Jalan Sultan Zainal Abidin, 20000 Kuala Terengganu, Terengganu, Malaysia",3,23
阿燕咖哩魚麵,"31, Jalan Jakar, Kampung Jakar, 24000 Chukai, Terengganu, Malaysia",3,23
Restaurant Kim Lian Kee,"92, Jalan Hang Lekir, City Centre, 50000 Kuala Lumpur, Wilayah Persekutuan Kuala Lumpur, Malaysia",3,24
Fook Kee Food Garden,"Jalan 11/38d, Taman Sri Sinar, 51200 Kuala Lumpur, Wilayah Persekutuan Kuala Lumpur, Malaysia",3,24
鎰記茶餐館,"1, Jalan Kamunting, Chow Kit, 50300 Kuala Lumpur, Wilayah Persekutuan Kuala Lumpur, Malaysia",3,24
明記燒魚美味店,"39, Jalan Alor, Bukit Bintang, 50200 Kuala Lumpur, Wilayah Persekutuan Kuala Lumpur, Malaysia",3,24
Restoran Xang Kee,"Ground Floor, 51 & 53, Jalan Jejaka 9, Maluri, 55100 Cheras, Wilayah Persekutuan Kuala Lumpur, Malaysia",3,24
Pulau Labuan Restaurant,"9, Jalan Kemajuan, Bandar Labuan, 87000 Labuan, Wilayah Persekutuan Labuan, Malaysia",3,25
The Living Room,"Malaysia Wilayah Persekutuan Labuan, Labuan, Financial Park, Jln Merdeka, Dorsett Grand 462, 87029",3,25
Loong Fish Head Soup Stall,"Bandar Labuan, 87000 Labuan, Labuan Federal Territory, Malaysia",3,25
MN Kopitiam," U0397, Jalan Bunga Dahlia, Bandar Labuan, 87000 Labuan, Wilayah Persekutuan Labuan, Malaysia",3,25
Deep Sea Raff Restaurant,"Bandar Labuan, 87000 Labuan, Labuan Federal Territory, Malaysia",3,25
Putrajaya Seafood Restaurant,"Taman Botani Putrajaya,, Presint 1, 62000 Putrajaya, Selangor, Malaysia",3,26
Slero D Timur,"Ayer@8, lot c1-lg-02, Jalan P8G, Presint 8, 62250 Putrajaya, Malaysia",3,26
Serabei Restaurant,"Ayer@8, A2-G-3A,, Jalan P8G, Presint 8, 62250 Putrajaya, Wilayah Persekutuan Putrajaya, Malaysia",3,26
Hameed Nasi Kandar,"S04 Selera Putra,, Presint 1, 62502 Putrajaya, Malaysia",3,26
Balqis Restaurant - Putrajaya,"Ayer@8, A1-G-1, Jalan P8e2/10, Presint 8, 62250, Putrajaya, Malaysia",3,26
