Name,Address,Country,City
月桂燒肉餐廳（提供哈根達斯）,"No. 57號, Aier Road, Ren’ai District, Keelung City, 200",1,27
漾漾好時餐廳 Goodtimes 基隆店,"No. 14-1號, Nanrong Road, Ren’ai District, Keelung City, 200",1,27
海勒牛排館/基隆牛排/基隆美食/基隆餐廳/基隆必吃/基隆美食推薦/基隆restaurants,"200, Keelung City, Ren’ai District, Aiyi Rd, 36號1F",1,27
象賀咖啡簡餐店,"200, Keelung City, Ren’ai District, Zhonger Road, 26號2樓",1,27
Vivaio Pasta,"No. 172號, Xin'er Road, Xinyi District, Keelung City, 201",1,27
Hai Longzhu Seafood Restaurant,"No. 71-7號, Jijin 3rd Road, Anle District, Keelung City, 204",1,27
樂多吐司,"202, Keelung City, Zhongzheng District, 義一路20巷3號",1,27
燒肉眾精緻炭火燒肉 基隆廟口店,"No. 4號, Aiwu Road, Ren’ai District, Keelung City, 200",1,27
Keelunggang Seafood Restaurant,"No. 181, Xin'er Road, Xinyi District, Keelung City, 201",1,27
Mo Chu Restaurant,"20047, Keelung City, Ren’ai District, Aisan Road, 87號2樓",1,27
基隆1973海景駐唱餐廳,"No. 132, Lane 51, Zhongshaner Road, Zhongshan District, Keelung City, 203",1,27
八斗邀 Badauyao,"No. 35, Badou Street, Zhongzheng District, Keelung City, 202",1,27
大嘴巴茶坊 - 基隆廟口,"200, Keelung City, Ren’ai District, Aisan Road, 57號3樓",1,27
歡樂食光/基隆美食推薦/基隆restaurants/基隆火鍋/基隆平價美食/基隆麻辣/基隆餐廳,"No. 230號, Dongxin Road, Xinyi District, Keelung City, 201",1,27
河豚很多,"No. 88, Zhengbin Road, Zhongzheng District, Keelung City, 202",1,27
阿根納原味餐廳,"2, No. 75號, Lane 116, Zhengbin Road, Zhongzheng District, Keelung City, 20246",1,27
龍坊複合式駐唱餐廳,"2 No. 106號, Aisan Road, Ren’ai District, Keelung City, 200",1,27
愚夫巧廚私房料理,"No. 240-1號, Fuxing Road, Zhongshan District, Keelung City, 203",1,27
Tanawat,"202, Keelung City, Zhongzheng District, 新豐街251巷4弄33號",1,27
Encounter Restaurant 遇見你餐廳,"No. 51號, Gangxi Street, Ren’ai District, Keelung City, 200",1,27
酒燒創意料理,"202, Keelung City, Zhongzheng District, 義一路20巷2號",1,27
基隆老司雞炸全雞專賣店(總店),"201, Keelung City, Xinyi District, 深澳坑路2之36號",1,27
饕客館,"No. 2號, Lane 2, Yier Road, Zhongzheng District, Keelung City, 202",1,27
手塩日式鐵板居食屋,"No. 9號, Lane 2, Yier Road, Zhongzheng District, Keelung City, 202",1,27
美有計劃Cafe,"20047, Keelung City, Ren’ai District, Lane 98, Aisan Road, 15號2",1,27
燒肉哦爺 （基隆東岸店）,"200, Keelung City, Ren’ai District, Rener Road, 257號2F",1,27
Santorini Sea View Restaurant,"203, Keelung City, Zhongshan District, Section 1, Huhai Road, 18號2樓",1,27
He Yi Restaurant,"No. 8號, Lane 62, Lelier Street, Anle District, Keelung City, 204",1,27
尚品屋精致涮涮锅,"No. 34之1號, Zhongzheng Rd, Zhongzheng District, Keelung City, 202",1,27
Ocean City Italian Restaurants,"202, Keelung City, Zhongzheng District, Xin'er Road, 290-1號2樓",1,27
Tokiya Keelung,"202, Keelung City, Zhongzheng District, Xinyi Rd, 177號12F",1,27
榮生魚片,"No. 2, Alley 3, Lane 118, Chenggongyi Road, Ren’ai District, Keelung City, 200",1,27
威肯創意廚房@基隆祥豐總店,"No. 81號, Xiangfeng Street, Zhongzheng District, Keelung City, 202",1,27
Xing Di Ling Restaurant,"No. 52號, Jijin 3rd Road, Anle District, Keelung City, 204",1,27
Rabbit nest righteousness kitchen,"No. 58, Wuling Street, Anle District, Keelung City, 204",1,27
基隆銘傳總店好運殿日式炸物,"No. 2號, Liumingchuan Rd, Ren’ai District, Keelung City, 20050",1,27
樂食意大利餐廳,"No. 98號, Rener Road, Ren’ai District, Keelung City, 200",1,27
福圓北方風味館,"201, Keelung City, Xinyi District, Xin'er Road, 281號2",1,27
漁品軒,"No. 71, Beining Road, Zhongzheng District, Keelung City, 202",1,27
芳鄰涮涮鍋私房套餐,"203, Keelung City, Zhongshan District, Fuxing Road, 261號B1",1,27
紅廚私房菜,"No. 61號, Xiaoyi Road, Ren’ai District, Keelung City, 20041",1,27
Ga Shang Xian Restaurant,"No. 67-1, Jijin 3rd Road, Anle District, Keelung City, 204",1,27
阿鹿私房菜,"No. 259, Shijian Road, Qidu District, Keelung City, 206",1,27
喬義思choice窯烤手作廚房基隆海洋都會店,"No. 236號, Rener Road, Ren’ai District, Keelung City, 200",1,27
NiceBay尼斯灣海洋景觀餐廳-推薦人氣必吃 親子聚餐 下午茶 海鮮鍋,"202, Keelung City, Zhongzheng District, Beining Road, 367號區域探索館4樓",1,27
賞鮨手作料理店,"20141, Keelung City, Xinyi District, Dongming Road, 2號1樓",1,27
傻大姐海景餐廳,"No. 45-2, Lane 369, Beining Road, Zhongzheng District, Keelung City, 202",1,27
新環港海鮮餐廳,"202, Keelung City, Zhongzheng District, 北寧路252巷6-12號",1,27
魯山人基隆店-海鮮火鍋/壽喜燒吃到飽,"202, Keelung City, Zhongzheng District, Xinyi Rd, 177號皇冠商業大樓33樓",1,27
真鮮活海產手作料理,"No. 123, Rener Road, Ren’ai District, Keelung City, 200",1,27
邦彼諾 Bambino,"No. 4號, Gangxi Street, Ren’ai District, Keelung City, 200",1,27
幸福10號店,"No. 10號, Lane 141, Xinyi Road, Xinyi District, Keelung City, 201",1,27
Chang Di Ling Restaurant,"No. 82號之7號, Jijin 3rd Road, Anle District, Keelung City, 204",1,27
木野和風家庭料理,"No. 30號, Lane 2, Anheyi Street, Anle District, Keelung City, 204",1,27
Hong Yang Yi Shi Restaurant,"No. 2號, Lane 135, Jijinyi Road, Anle District, Keelung City, 204",1,27
小峨嵋川菜館,"No. 58號, Yiyi Road, Zhongzheng District, Keelung City, 202",1,27
Mykonos cafe,"No. 37, Section 1, Huhai Road, Zhongshan District, Keelung City, 203",1,27
芸郁庭園 七堵美食海鮮餐廳,"No. 38之6號, Huaxin 1st Road, Qidu District, Keelung City, 206",1,27
芳裕農場,"No. 51, Dacheng Street, Qidu District, Keelung City, 206",1,27
基隆宵麻辣頂級火鍋,"200, Keelung City, Ren’ai District, Aisi Road, 47-1號2樓",1,27
希臘天空景觀餐廳 Greece's Sky,"No. 50, Lane 369, Beining Road, Zhongzheng District, Keelung City, 202",1,27
金客來小吃店,"No. 39號, Lane 12, Yisan Road, Xinyi District, Keelung City, 201",1,27
通通泰式風味小吃,"No. 120, Gongjian Road, Qidu District, Keelung City, 206",1,27
輕鬆宴日式、港式海鮮會館,"20047, Keelung City, Ren’ai District, Aiyi Rd, 35號2樓",1,27
Fengche Yinyue Restaurant,"200, Keelung City, Ren’ai District, Aier Road, 50號2樓",1,27
雞籠海鮮樓,"202, Keelung City, Zhongzheng District, Zhongzheng Rd, 62號2樓",1,27
滿滿燒肉,"No. 23, Aier Road, Ren’ai District, Keelung City, 200",1,27
全家福海鮮樓,"No. 221號, Wenhua Road, Zhongshan District, Keelung City, 203",1,27
Ms.Lee 全芳味餐廳,"No. 14, Jijin 3rd Road, Anle District, Keelung City, 204",1,27
森林旁邊 La Forêt 親子友善餐廳,"No. 236號, Zhongzheng Rd, Zhongzheng District, Keelung City, 202",1,27
Wu Lang seafood restaurant,"No. 46, Anyi Road, Zhongshan District, Keelung City, 203",1,27
基隆古早風味甕仔雞-麥金店,"No. 1號, Lane 11, Maijin Road, Anle District, Keelung City, 204",1,27
Ming Wei Restaurant,"No. 216號, Jijin 1st Road, Anle District, Keelung City, 204",1,27
後山海景咖啡,"No. 105, Lane 65, Zhongshaner Road, Zhongshan District, Keelung City, 203",1,27
外木山餐廳,"號, No. 39, Section 1, Huhai Road, Zhongshan District, Keelung City, 203",1,27
丸山日式涮涮鍋,"No. 45, Aier Road, Ren’ai District, Keelung City, 200",1,27
HND好日子美式海鮮餐廳,"202, Keelung City, Zhongzheng District, Yier Road, 81號202",1,27
小蒙牛頂級麻辣養生火鍋-HOTPOT-基隆店,"202, Keelung City, Zhongzheng District, Xinyi Rd, 177號32樓",1,27
我媽煮的菜,"No. 356號, Jijin 1st Road, Anle District, Keelung City, 204",1,27
Second Floor Café,"No. 7, Alley 9, Lane 316, Section 3, Roosevelt Rd, Zhongzheng District, Taipei City, 100",1,28
Mixiang Tai Cai Restaurant,"No. 55, Lequn 2nd Road, Zhongshan District, Taipei City, 104",1,28
BELLINI CAFFE 台北復興店,"No. 288號, Fuxing North Road, Zhongshan District, Taipei City, 104",1,28
Buttermilk 摩登美式餐廳,"No. 57之1號, Section 2, Zhongshan N Rd, Zhongshan District, Taipei City, 10491",1,28
GUMGUM Beer & Wings 雞翅酒吧,"No. 38號, Alley 11, Lane 473, Guangfu South Road, Xinyi District, Taipei City, 110",1,28
Berry Italian Restaurant,"114, Taipei City, Neihu District, Alley 44, Lane 22, Wende Road, 20號1樓",1,28
GAUCHO高卓人阿根廷炭烤餐廳(花博店),"No. 1號, Yumen Street, Zhongshan District, Taipei City, 10491",1,28
Addiction Aquatic Development,"No. 18號, Alley 2, Lane 410, Minzu East Road, Zhongshan District, Taipei City, 10491",1,28
Stream Music Salon,"No. 18號, Lane 316, Section 3, Luosifu Road, Zhongzheng District, Taipei City, 10088",1,28
Thai Bazaar Breeze Xinyi Restaurant,"110, Taipei City, Xinyi District, Section 5, Zhongxiao East Road, 68號4樓",1,28
樂天皇朝台灣 Paradise Dynasty,"110, Taipei City, Xinyi District, Section 5, Zhongxiao East Road, 68號微風信義商場 4樓",1,28
TONWAY,"No. 3, Alley 27, Lane 372, Section 5, Zhongxiao East Road, Xinyi District, Taipei City, 110",1,28
ahmicafé,"No. 63號, Section 2, Zhongshan N Rd, Zhongshan District, Taipei City, 104",1,28
GB Brewery Restaurant – Taipei DaZhi Store,"10491, Taipei City, Zhongshan District, Jingye 3rd Road, 123號1樓",1,28
山頂餐廳 上海江浙菜,"No. 124, Gezhi Road, Shilin District, Taipei City, 111",1,28
Cyclamen Garden Seafood Restaurant,"112, Taipei City, Beitou District, Section 2, Donghua St, 114號112號",1,28
MiraWan,"110, Taipei City, Xinyi District, Songzhi Road, 17號47樓",1,28
NOTE,"No. 578號, Guangfu South Road, Da’an District, Taipei City, 106",1,28
Celestial (天廚菜館),"104, Taipei City, Zhongshan District, Nanjing West Road, 1號3樓",1,28
人和園餐廳,"No. 16號, Jinzhou Street, Zhongshan District, Taipei City, 104",1,28
燒桶子 韓風立燒,"No. 99, Yanji Street, Da’an District, Taipei City, 106",1,28
Bo Li Lu Restaurant,"No. 308號, Minsheng West Road, Datong District, Taipei City, 103",1,28
台北站福利餐廳,"DunHua N Rd, Songshan District, Taipei City, 105",1,28
Stan & Cat 史丹貓美式餐廳 忠孝店,"No. 26, Lane 160, Section 1, Dunhua South Road, Da’an District, Taipei City, 106",1,28
Wayne’s New York 瑋恩紐約美式龍蝦牛排餐廳,"No. 81號, Section 2, Keelung Rd, Xinyi District, Taipei City, 110",1,28
Backpacker Cafe,"No. 40號, Lane 236, Section 1, Dunhua South Road, Da’an District, Taipei City, 106",1,28
好食多涮涮屋,"No. 5號, Lane 19, Shuangcheng Street, Zhongshan District, Taipei City, 104",1,28
小食泰 Fanthaisy 泰式料理餐廳/台北中山國中美食/泰國菜/附近美食/restaurants,"No. 27號, Lane 238, Dunhua North Road, Songshan District, Taipei City, 105",1,28
BaganHood 蔬食餐酒館,"No. 11號, Alley 46, Lane 553, Section 4, Zhongxiao East Road, Xinyi District, Taipei City, 110",1,28
但馬家鐵板燒 Taijimaya Teppanyaki,"105, Taipei City, Songshan District, 敦化北路166號5樓",1,28
Xing Penglai Taiwanese cuisine Seafood Restaurants,"No. 55, Section 7, Zhongshan North Road, Shilin District, Taipei City, 111",1,28
Elfin Restaurant & lounge,"No. 21, Alley 5, Lane 107, Section 1, Fuxing South Road, Da’an District, Taipei City, 106",1,28
頂園港式料理餐廳,"No. 250, Section 3, Chengde Road, Datong District, Taipei City, 103",1,28
Latest Recipe,"No. 38號, Songren Road, Xinyi District, Taipei City, 110",1,28
Hello！Jazz！親子餐廳,"No. 88, Section 7, Zhongshan North Road, Shilin District, Taipei City, 11151",1,28
媽咪講親子餐廳會所Money Jump,"114, Taipei City, Neihu District, Minshan Street, 127號2 F",1,28
Nanjing Banya Restaurant,"No. 272, Section 3, Chongqing North Road, Datong District, Taipei City, 103",1,28
Ju Yuan Restaurant,"No. 39號, Alley 25, Lane 113, Section 3, Minsheng East Road, Songshan District, Taipei City, 105",1,28
好處 Have A Nice Day,"No. 30號, Alley 14, Lane 283, Section 3, Luosifu Road, Da’an District, Taipei City, 106",1,28
PATIO46 美式餐廳,"116, Taipei City, Wenshan District, Alley 4, Lane 112, Section 3, Xinglong Road, 46號1樓",1,28
HANA錵鐵板燒餐廳,"2, No. 32號, Nong'an Street, Zhongshan District, Taipei City, 10491",1,28
金魚日本料理,"No. 18號, Lane 233, Yanji Street, Da’an District, Taipei City, 106",1,28
台北喜來登大飯店 - 十二廚 Kitchen 12,"100, Taipei City, Zhongzheng District, Section 1, Zhongxiao East Road, 12號1樓",1,28
樂晴時尚酒吧鍋物 La Ching pot,"No. 23之3號, Shuangcheng Street, Zhongshan District, Taipei City, 104",1,28
木山廚房,"No. 138, Section 6, Roosevelt Rd, Wenshan District, Taipei City, 116",1,28
Mayur Indian Kitchen Restaurant bar 馬友友印度廚房 (MIK-2),"No. 103, Section 3, Minsheng East Road, Songshan District, Taipei City, 105",1,28
何首烏皇帝鶏餐廳,"No. 8, Lane 69, Songjiang Road, Zhongshan District, Taipei City, 10491",1,28
遠東Café自助餐廳 - 香格里拉台北遠東國際大飯店,"No. 201號, Section 2, Dunhua South Road, Da’an District, Taipei City, 10675",1,28
Little Lizi Seafood,"No. 93, Hami Street, Datong District, Taipei City, 103",1,28
艾朋牛排餐酒館 À POINT STEAK & BAR,"110, Taipei City, Xinyi District, Zhongxiao E Rd, 五段139號2樓",1,28
天馬行空城堡親子餐廳,"No. 30, Gangu Street, Datong District, Taipei City, 103",1,28
Longtail,"No. 174號, Section 2, Dunhua South Road, Da’an District, Taipei City, 106",1,28
BELLINI CAFFÉ DunNan Restaurant,"106, Taipei City, Da’an District, 敦化南路1段370號B1.B2",1,28
Just Italian,"106, Taipei City, Da’an District, Section 4, Roosevelt Rd, 83號2樓",1,28
Elephant Garden Neihu,"No. 192號, Section 2, Neihu Road, Neihu District, Taipei City, 114",1,28
ZIGA ZAGA Grand Hyatt Taipei,"No. 2號, Songshou Road, Xinyi District, Taipei City, 110",1,28
A CUT 牛排館,"B1 No. 63號, Section 2, Zhongshan N Rd, Zhongshan District, Taipei City, 10491",1,28
丸滿台灣味手路菜,"No. 21號, Lane 353, Linsen North Road, Zhongshan District, Taipei City, 10491",1,28
LENINI 樂尼尼義式餐廳-台北內湖店,"114, Taipei City, Neihu District, Xinhu 3rd Road, 28號A館2樓",1,28
澄食小人屋/台北日本料理 台北丼飯/內湖美食/內湖餐廳/內湖日本料理/內湖生魚片/內湖日本料理/內湖壽司,"No. 1號, Lane 41, Section 4, Chenggong Road, Neihu District, Taipei City, 114",1,28
Saffron Fine Indian Cuisine,"No. 38之6號, Tianmu East Road, Shilin District, Taipei City, 111",1,28
川老爺麻辣鍋,"No. 67號, Section 5, Chenggong Road, Neihu District, Taipei City, 114",1,28
吉品海鮮餐廳 敦南店,"105, Taipei City, Songshan District, 敦化南路1段25號2樓",1,28
Second Floor Cafe Xihu Restaurant,"No. 300號, Section 1, Neihu Rd, Neihu District, Taipei City, 114",1,28
A.I.O餐廳,"No. 23, Lane 101, Section 1, Keelung Rd, Xinyi District, Taipei City, 110",1,28
Ya Ge,"No. 158, DunHua N Rd, Songshan District, Taipei City, 10548",1,28
Wayne's Boston,"No. 88號, Section 1, Xinsheng North Road, Zhongshan District, Taipei City, 10491",1,28
犇 鐵板燒 安和本館,"No. 2, Lane 102, Section 1, Anhe Road, Da’an District, Taipei City, 106",1,28
Bel Air Bar & Grill Grand Hyatt Taipei,"110, Taipei City, Xinyi District, Songshou Road, 2號2樓",1,28
煮雲軒,"No. 32-1, Bishan Road, Neihu District, Taipei City, 114",1,28
A.K.12 美式小館,"108, Taipei City, Wanhua District, 峨嵋街12號2樓",1,28
Pay My Tuition Restaurant,"No. 37, Lane 417, Guangfu South Road, Xinyi District, Taipei City, 110",1,28
古亭讚食堂 Guting Like Restaurant,"No. 11, Lane 66, Section 2, Roosevelt Rd, Zhongzheng District, Taipei City, 100",1,28
Hestia Tapas Bar,"105, Taipei City, Songshan District, Alley 18, Lane 130, Section 3, Minsheng East Road, 4號1樓",1,28
Xiang Fu Restaurant,"105, Taipei City, Songshan District, Section 4, Nanjing East Road, 50號2樓",1,28
Botega del Vin,"No. 7, Alley 17, Lane 170, Section 4, Zhongxiao East Road, Da’an District, Taipei City, 106",1,28
Venice Cookshop,"104, Taipei City, Zhongshan District, Lane 235, Songjiang Road, 19號",1,28
Luna D'Italia Italian Restaurant,"No. 3, Lane 265, Section 2, Dunhua South Road, Da’an District, Taipei City, 106",1,28
Second Floor Cafe Breeze Taipei Station,"100, Taipei City, Zhongzheng District, Beiping West Road, 3號2F",1,28
莫爾頓牛排館 Morton's The Steakhouse,"110, Taipei City, Xinyi District, Section 5, Zhongxiao East Road, 68號45F",1,28
北海漁村-台北杭州店,"No. 8號, Section 1, Hangzhou South Road, Zhongzheng District, Taipei City, 100",1,28
Jimmy's Garden,"No. 5號, Lane 11, Section 3, Xinsheng South Road, Da’an District, Taipei City, 106",1,28
Gmt Italian Restaurant,"號4樓, No. 55, Lequn 2nd Road, Zhongshan District, Taipei City, 10462",1,28
台北晶華酒店- 栢麗廳 Brasserie,"1 No. 3號, Lane 39, Section 2, Zhongshan North Road, Zhongshan District, Taipei City, 10491",1,28
Nong Lai Restaurant,"No. 1號, Alley 11, Lane 147, Section 2, Minsheng East Road, Zhongshan District, Taipei City, 10491",1,28
Xiangjian Xiaolu Restaurant,"No. 1, Lane 55, Section 4, Minsheng East Road, Songshan District, Taipei City, 105",1,28
老爺大酒店-明宮粵菜廳,"10491, Taipei City, Zhongshan District, Section 2, Zhongshan N Rd, 37之1號3樓",1,28
台北西華飯店 怡園中餐廳,"105, Taipei City, Songshan District, Section 3, Minsheng East Road, 111號2F",1,28
Serenity,"100, Taipei City, Zhongzheng District, 1號 No. 1巷鎮江街",1,28
PS BUBU 金屋藏車食堂-天母寵物友善餐廳/天母偶像劇景點餐廳/天母人氣下午茶/特色主題餐廳推薦/寵物料理餐廳/藝人推薦餐廳 好吃義大利餐點 高CP值餐廳推薦 網友好評寵物餐廳,"No. 1號, Lane 140, Section 7, Zhongshan North Road, Shilin District, Taipei City, 111",1,28
金蓬萊遵古台菜餐廳,"No. 101號, Tianmu East Road, Shilin District, Taipei City, 111",1,28
Dozo Izakaya Bar,"No. 102, Guangfu South Road, Da’an District, Taipei City, 106",1,28
Jinghua Lou Restaurant,"No. 74號, Ningbo West Street, Zhongzheng District, Taipei City, 100",1,28
馬友友印度廚房 - 大直 Mayur Indian Kitchen restaurant Dazhi (MiK-hi5),"No. 8, Lane 630, Beian Road, Zhongshan District, Taipei City, 10491",1,28
la FESTA義大利餐廳,"No. 168, Jingye 4th Road, Zhongshan District, Taipei City, 10491",1,28
Moonlight Cantonese Restaurant,"115, Taipei City, Nangang District, Section 7, Zhongxiao East Road, 359號8樓",1,28
Snail,"No. 60號, Tianmu North Road, Shilin District, Taipei City, 111",1,28
Mitsui Japanese Restaurant,"No. 30號, Nong'an Street, Zhongshan District, Taipei City, 104",1,28
Diamond Tony's Italian Restaurant 101,"110, Taipei City, Xinyi District, Section 5, Xinyi Rd, 7號85F",1,28
De Loin de-Lans Restaurant,"No. 98, Jinzhuang Road, Neihu District, Taipei City, 114",1,28
梅子餐廳林森老店 Umeko Restaurant,"No. 1號, Lane 107, Linsen North Road, Zhongshan District, Taipei City, 10491",1,28
Mountain & Sea House Restaurant,"No. 94號, Section 2, Ren'ai Road, Zhongzheng District, Taipei City, 100",1,28
Second Floor Café Renai Store,"No. 108號, Section 2, Ren'ai Road, Zhongzheng District, Taipei City, 100",1,28
Ji Yuan Szechuan Restaurant,"106, Taipei City, Da’an District, 敦化南路1段324號1F",1,28
Balle Balle Indian Restaurant & Bar 巴雷巴雷 印度餐廳,"105, Taipei City, Songshan District, Guangfu North Road, 12號1樓",1,28
Peng's Gourmet & Banquet,"104, Taipei City, Zhongshan District, 林森北路380號2F",1,28
愛新覺羅 原味．鮮採嚴煮,"No. 104, Section 4, Civic Blvd, Da’an District, Taipei City, 106",1,28
對話餐廳 DIR.Restaurant,"No. 51號, Dalong Street, Datong District, Taipei City, 103",1,28
Tai Zhi Zui Restaurant,"No. 2號, Aifu 1st Street, Shilin District, Taipei City, 111",1,28
Farmer's Table,"100, Taipei City, Zhongzheng District, Section 2, Chongqing South Road, 51號B1",1,28
大腕燒肉Da-wan,"106, Taipei City, Da’an District, Lane 177, Section 1, Dunhua South Road, 22號1樓",1,28
筷子餐廳,"No. 1號, Lane 290, Guangfu South Road, Da’an District, Taipei City, 106",1,28
Meili Restaurant,"No. 146號, Jinzhou Street, Zhongshan District, Taipei City, 10491",1,28
TUTTO Fresco 翡冷翠義式餐廳,"100, Taipei City, Zhongzheng District, Section 1, Hankou St, 15號1樓",1,28
Tutto Bello,"104, Taipei City, Zhongshan District, Lane 25, Shuangcheng Street, 15號1樓",1,28
Yun Jin Grand Hyatt Taipei,"110, Taipei City, Xinyi District, Songshou Road, 2號2樓",1,28
Le Blanc Taipei,"No. 183號, Section 1, Da'an Road, Da’an District, Taipei City, 106",1,28
Japanese buffet restaurant Shin Yeh,"100, Taipei City, Zhongzheng District, Guanqian Road, 12號6樓",1,28
Guest House,"100, Taipei City, Zhongzheng District, Section 1, Zhongxiao East Road, 12號",1,28
Jia Yan Chinese Restaurant,"108, Bangka Blvd, 3 樓 167, Vanhua, Taibei",1,28
Really Good Seafood,"10666, Taipei City, Da’an District, Section 1, Fuxing South Road, 222號1樓",1,28
吉祥樓海鮮餐廳 /古早味捷運美食 團體聚餐/婚宴服務,"No. 8, Lane 48, Tianxiang Road, Zhongshan District, Taipei City, 10491",1,28
The Top,"No. 33號, Alley 4, Lane 61, Kaixuan Road, Shilin District, Taipei City, 111",1,28
Lulu Restaurant,"No. 9號, Lane 113, Section 3, Minsheng East Road, Songshan District, Taipei City, 105",1,28
Chou Chou,"No. 22, Alley 6, Lane 170, Section 4, Zhongxiao East Road, Da’an District, Taipei City, 106",1,28
Snail Italian Restaurant,"No. 10, Alley 3, Lane 56, Section 4, Minsheng East Road, Songshan District, Taipei City, 105",1,28
吃吧餐廳 chiba,"108, Taipei City, Wanhua District, Section 2, Wuchang St, 77號5樓",1,28
Hui Tien Vegetarianism,"No. 357, Zhongzheng Road, Shilin District, Taipei City, 111",1,28
Chamonix new Champs Teppanyaki Taipei,"B1, No. 44號, Section 2, Zhongshan N Rd, Zhongshan District, Taipei City, 104",1,28
莎諾西餐,"No. 105號, Tianmu West Road, Beitou District, Taipei City, 112",1,28
Restaurant Page 頁小館,"10463, Taipei City, Zhongshan District, Alley 20, Lane 595, Beian Road, 4號1樓",1,28
阿潘廚房,"No. 3, Alley 5, Lane 93, Section 3, Jianguo North Road, Zhongshan District, Taipei City, 10473",1,28
大師廚館/台北年菜/松山區美食/松山區餐廳/松山區家庭聚餐/松山區年菜/松山區尾牙,"No. 258號, Section 5, Minsheng East Road, Songshan District, Taipei City, 105",1,28
新東南海鮮餐廳 松山店,"No. 656號, Section 4, Bade Road, Songshan District, Taipei City, 105",1,28
紅錵餐廳股份有限公司,"No. 32, Nong'an Street, Zhongshan District, Taipei City, 10491",1,28
合.shabu,"4F, No. 28號, Songren Road, Xinyi District, Taipei City, 110",1,28
樂軒松阪亭,"No. 19號, Songgao Road, Xinyi District, Taipei City, 110",1,28
Bianco,"No. 19號, Lane 112, Section 4, Ren'ai Road, Da’an District, Taipei City, 106",1,28
頂鮮台南擔仔麵 台北101店 (DingXian Taipei),"110, Taipei City, Xinyi District, Section 5, Xinyi Rd, 7號台北101大樓86F/87F",1,28
Steak Inn,"No. 1號, Lane 105, Section 4, Ren'ai Road, Da’an District, Taipei City, 106",1,28
L’ATELIER de Joël Robuchon侯布雄法式餐廳,"110, Taipei City, Xinyi District, Songren Road, 28號5 F",1,28
Lawry's The Prime Rib,"110, Taipei City, Xinyi District, Songren Road, 28號6樓",1,28
36美食,"No. 36, Lane 256, Section 3, Nanjing East Road, Songshan District, Taipei City, 105",1,28
Bencotto,"No. 158, DunHua N Rd, Songshan District, Taipei City, 10548",1,28
RAW,"No. 301號, Lequn 3rd Road, Zhongshan District, Taipei City, 10491",1,28
NO. 1 FOOD THEATER,"No. 2號, Alley 3, Lane 346, Section 2, Bade Road, Songshan District, Taipei City, 105",1,28
Mao Yuan Restaurant,"No. 185號, Section 2, Chang'an East Road, Zhongshan District, Taipei City, 104",1,28
Song Kitchen Restaurant,"No. 14, Lane 15, Section 5, Zhongxiao East Road, Xinyi District, Taipei City, 110",1,28
Yue Hu Oushi Restaurant,"No. 6號, Lane 50, Section 2, Zhongcheng Road, Shilin District, Taipei City, 111",1,28
the kitchen table,"10, No. 10號, Section 5, Zhongxiao East Road, Xinyi District, Taipei City, 110",1,28
香宮-Shang Palace 香格里拉台北遠東國際大飯店,"6f, No. 201號, Section 2, Dunhua South Road, Da’an District, Taipei City, 106",1,28
N°168 Prime Steakhouse 牛排館,"No. 168號, Jingye 4th Road, Zhongshan District, Taipei City, 10491",1,28
飯BAR Station 信義微風店,"110, Taipei City, Xinyi District, Section 5, Zhongxiao East Road, 68號4F",1,28
新東南海鮮餐廳 汀州店,"No. 105號, Section 1, Tingzhou Road, Zhongzheng District, Taipei City, 100",1,28
樂軒和牛專門店,"No. 9, Lane 91, Section 4, Ren'ai Road, Da’an District, Taipei City, 106",1,28
Toh-A'桌藏,"No. 9, Alley 23, Lane 76, Section 2, Heping East Road, Da’an District, Taipei City, 106",1,28
梅子鰻蒲燒專賣店 Umeko Japanese Unagi Restaurant,"No. 8號, Lane 107, Linsen North Road, Zhongshan District, Taipei City, 10491",1,28
Ikki 藝奇,"105, Taipei City, Songshan District, DunHua N Rd, 207號B1",1,28
當下Just Eat/中山區restaurants/台北餐廳/中山餐廳/中山美食/行天宮美食/行天宮餐廳,"104, Taipei City, Zhongshan District, Songjiang Road, 374號1樓",1,28
Le Palais,"103, Taipei City, Datong District, Section 1, Chengde Road, 3號17樓",1,28
喜憨兒ENJOY 臺北餐廳,"110, Taipei City, Xinyi District, City Hall Rd, 1號號",1,28
Ikki,"No. 52, Hengyang Road, Zhongzheng District, Taipei City, 100",1,28
YEN Taipei,"110, Taipei City, Xinyi District, Section 5, Zhongxiao East Road, 10號31樓",1,28
Merlot Cafe & Bistro,"No. 32, Lane 76, Section 2, Xinsheng North Road, Zhongshan District, Taipei City, 10491",1,28
囍聚精緻鍋物 台北美食 台北餐廳 台北火鍋 台北海鮮 海膽飯 海鮮火鍋 台北頂級火鍋 生日餐廳,"No. 17, Alley 7, Lane 72, Guangfu South Road, Da’an District, Taipei City, 10694",1,28
Monsieur L Restaurant,"No. 21號, Lane 131, Section 4, Minsheng East Road, Songshan District, Taipei City, 105",1,28
一吃上癮甕缸雞,"No. 211號, Section 4, Civic Blvd, Songshan District, Taipei City, 105",1,28
地中海牛排館-歐華酒店,"No. 646號, Linsen N Rd, Zhongshan District, Taipei City, 10461",1,28
刀叉私廚商行/台北restaurants/台北餐廳/台北美食/台北美食推薦/台北無菜單料理/涼州街美食,"No. 2-8號, Liangzhou Street, Datong District, Taipei City, 103",1,28
Jimmy's Kitchen,"106, Taipei City, Da’an District, Section 4, Ren'ai Road, 77號B1",1,28
L'IDIOT RESTAURANT,"No. 369號, Linsen N Rd, Zhongshan District, Taipei City, 10491",1,28
布娜飛比利時啤酒餐廳 Bravo Beer 台北市民店（聖誕啤酒月曆）,"No. 185號, Section 4, Civic Blvd, Songshan District, Taipei City, 105",1,28
樂埔町 Leputing,"No. 67, Section 2, Hangzhou South Road, Da’an District, Taipei City, 106",1,28
玉琢精緻料理(預約制)台北美食 台北餐廳 中山區美食 台北精緻料理 台北油封鴨 台北中菜西吃,"No. 11-1號, Lane 68, Section 2, Xinsheng N Rd, Zhongshan District, Taipei City, 10491",1,28
French Windows British Teahouse 琺蘭綺瑥朵英式茶餐館,"110, Taipei City, Xinyi District, Alley 22, Lane 553, Section 4, Zhongxiao East Road, 51之1號1樓",1,28
Goodies Cuisine,"No. 6, Lane 270, Section 1, Dunhua South Road, Da’an District, Taipei City, 106",1,28
星馬廚房,"No. 311之2號, Section 1, Wenhua Road, Banqiao District, New Taipei City, 220",1,29
星馬廚房,"No. 311之2號, Section 1, Wenhua Road, Banqiao District, New Taipei City, 220",1,29
原素食府,"4, No. 29-2號, Fuzhong Road, Banqiao District, New Taipei City, 220",1,29
Monini,"No. 241-1號, Zhongzheng Road, Tamsui District, New Taipei City, 251",1,29
痞食 丼 食堂（原利久川）,"No. 43號, Yongli Road, Yonghe District, New Taipei City, 234",1,29
新莊 上介青 平價海鮮快炒/新莊熱炒店/新莊美食/新莊海鮮餐廳/新莊海產店/宏匯廣場美食,"No. 126號, Zhongyuan Rd, Xinzhuang District, New Taipei City, 242",1,29
溢鼎小館,242新北市新莊區中平路82巷7號,1,29
旬采壽司,"No. 56, Wensheng Street, Banqiao District, New Taipei City, 220",1,29
提立歐義式餐廳,"No. 2, Shanggang Road, Bali District, New Taipei City, 249",1,29
家福首烏客家小館,"No. 88, Wugong Road, Xinzhuang District, New Taipei City, 242",1,29
打鹿岸原住民人文主題餐廳《林口店》,"No. 369, Section 2, Ren'ai Road, Linkou District, New Taipei City, 244",1,29
紅樓精緻鐵板燒,"No. 131號, Zhongyuan Rd, Xinzhuang District, New Taipei City, 242",1,29
樂市樂活,"248, New Taipei City, Wugu District, Wuquan Road, 1號南側出入口",1,29
帝王生魚片 新莊分店,"No. 257號, Zhongyuan Rd, Xinzhuang District, New Taipei City, 242",1,29
丸福早午餐 Wonderful Food 新莊店,"No. 167號, Zhongcheng Street, Xinzhuang District, New Taipei City, 242",1,29
六必居潮州一品沙鍋粥 民權店,"No. 3號, Minquan Road, Banqiao District, New Taipei City, 220",1,29
富樂里奇義大利麵餐廳,"242, New Taipei City, Xinzhuang District, Zhonggang Road, 260號242 號",1,29
放山雞台菜海鮮餐廳,"No. 423, Jinmen Street, Banqiao District, New Taipei City, 220",1,29
nihaomao,"220, New Taipei City, Banqiao District, Alley 31, Lane 435, Section 1, Wenhua Road, 17號1樓",1,29
德克莎拉早午餐 五工店-必吃中式 人氣西式 新鮮健康 可外送(近五股),"No. 5, Lane 94, Wugongsan Road, Xinzhuang District, New Taipei City, 242",1,29
珍珍小館,"No. 88號, Zhonggang 1st Street, Xinzhuang District, New Taipei City, 242",1,29
享。日子 Have a good day,"No. 2, Alley 2, Lane 65, Changsheng Street, Xinzhuang District, New Taipei City, 242",1,29
Thai Town Cuisine - Xinzhuang Store,"No. 750, Xingfu Road, Xinzhuang District, New Taipei City, 242",1,29
阿城鵝肉 土城總店,"No. 78號, Qingshui Road, Tucheng District, New Taipei City, 236",1,29
Red Castle 1899,"No. 6號, Lane 2, Sanmin Street, Tamsui District, New Taipei City, 251",1,29
紅餐廳 The RED,"235, New Taipei City, Zhonghe District, Zhongzheng Rd, 631號2樓",1,29
GoodDay Restaurant,"No. 131號, Section 2, Wenhuayi Road, Linkou District, New Taipei City, 244",1,29
Kala La Restaurant,"220, New Taipei City, Banqiao District, Section 2, Xianmin Boulevard, 8號2F",1,29
紅樓精緻鐵板燒,"No. 131號, Zhongyuan Rd, Xinzhuang District, New Taipei City, 242",1,29
五樂幸福食堂,"24248, New Taipei City, Xinzhuang District, Xingfu Road, 736號B1",1,29
洋城義大利餐廳-新莊宏匯店,"242, New Taipei City, Xinzhuang District, Section 4, New Taipei Blvd, 3號5樓",1,29
阿嘉的店,"No. 7號, Alley 21, Lane 12, Wuquanyi Road, Xinzhuang District, New Taipei City, 242",1,29
Oval meat American Restaurant,"No. 32, Fuxing 2nd Street, Taishan District, New Taipei City, 243",1,29
好吃的店,"No. 566號, Zhongzheng North Road, Sanchong District, New Taipei City, 241",1,29
滷道新莊晶冠店,"No. 80號, Wugong 3rd Road, Xinzhuang District, New Taipei City, 242",1,29
泰仔仔泰式料理,"No. 173, Zhongyuan Rd, Xinzhuang District, New Taipei City, 242",1,29
Tu Cheng He Zhong Restaurant,"236, New Taipei City, Tucheng District, Lane 278, Section 2, Zhongyang Road, 6之3號1樓",1,29
紅堂新川菜餐廳永和店,"No. 29, Minzu Street, Yonghe District, New Taipei City, 234",1,29
Hai Sheng Lou Restaurant,"No. 10號, Zhuangjing Road, Banqiao District, New Taipei City, 220",1,29
Chuen Ye Sichuanese Restaurant,"No. 36號, Lane 188, Section 1, Wenhua Road, Banqiao District, New Taipei City, 220",1,29
魚港生猛海鮮料理,"No. 205, Section 2, Sanmin Road, Banqiao District, New Taipei City, 220",1,29
MiNi廚房 義大利麵/淡水美食/restaurant/淡水義大利麵/淡水推薦餐廳/淡水附近美食/淡水必吃,"No. 145號, Yingzhuan Road, Tamsui District, New Taipei City, 251",1,29
樂漢堡美式餐廳 LOVSS BURGER,"No. 186, Zhongyuan East Road, Xinzhuang District, New Taipei City, 242",1,29
客家小炒,"No. 618號, Zhonggang Road, Xinzhuang District, New Taipei City, 242",1,29
燒肉天國---3小時無壓燒肉,"No. 219-6, Section 1, Wenhua Road, Banqiao District, New Taipei City, 220",1,29
Pon Pio Hot Pot surging pot,"No. 89-5號, Section 1, Wenhuayi Road, Linkou District, New Taipei City, 244",1,29
S.T. 銀河系水族/龍魚/餐廳/Club/加水站/下午茶/咖啡廳/酒吧,"244, New Taipei City, Linkou District, Section 1, Wenhua North Road, 272號～288號",1,29
銀鳳樓餐廳有限公司,"3樓, No. 2號3樓, Section 1, Zhongshan Road, Banqiao District, New Taipei City, 220",1,29
Foodie Life,"No. 63號, Xinfeng Street, Xinzhuang District, New Taipei City, 24243",1,29
Love Family Restaurant,"No. 200號, Wuhua Street, Sanchong District, New Taipei City, 241",1,29
藍爵 Blue Jazz 歐陸料理 三峽北大店,"No. 200號, Daxue Road, Sanxia District, New Taipei City, 23741",1,29
Gaizi American Restaurant,"No. 127號, Jianguo Street, Banqiao District, New Taipei City, 220",1,29
樂義屋 Love Eat House,"24248, New Taipei City, Xinzhuang District, Xingfu Road, 736號B1",1,29
Cats love to eat seafood barbecue shop,"Fuqian Street, Xinzhuang District, New Taipei City, 242",1,29
貓欸Camulet貓咪主題餐廳,"No. 6, Alley 3, Lane 270, Section 1, Wenhua Road, Banqiao District, New Taipei City, 22041",1,29
新北市政府員工餐廳,"220, New Taipei City, Banqiao District, Section 1, Zhongshan Road, 161號8樓",1,29
Chang Qing Gu Dian Restaurant,"No. 2-1, Minzu Street, Sanxia District, New Taipei City, 237",1,29
Tokiya MRT Xinpu Station,"220, New Taipei City, Banqiao District, Section 1, Wenhua Road, 360號2樓 2 樓三猿廣場",1,29
小國賓川菜館,"No. 32, Zhongrong Street, Xinzhuang District, New Taipei City, 242",1,29
禾野坊日式居酒屋,"No. 43號, Juguang Road, Banqiao District, New Taipei City, 220",1,29
Rita's Bistro,"No. 51號, Fude 2nd Street, Xinzhuang District, New Taipei City, 242",1,29
阿彤北和牛海鮮燒肉 板橋江子翠店,"No. 153號, Section 2, Wenhua Road, Banqiao District, New Taipei City, 220",1,29
典華雅聚 新莊店 (新莊典華2F),"No. 469, Zhongyang Road, Xinzhuang District, New Taipei City, 242",1,29
Water Front Restaurant,"No. 229-9, Zhongzheng Road, Tamsui District, New Taipei City, 251",1,29
彌敦道茶餐廳板橋誠品店,"220, New Taipei City, Banqiao District, Section 1, Zhongshan Road, 46號5樓",1,29
Qing Ya 青雅中餐廳 - Hilton Taipei Sinban 台北新板希爾頓酒店,"No. 88號, Minquan Road, Banqiao District, New Taipei City, 22050",1,29
川蜀食尚,"No. 125號, Zhongyuan East Road, Xinzhuang District, New Taipei City, 242",1,29
這一鍋 板橋府中殿,"No. 29-2, Fuzhong Road, Banqiao District, New Taipei City, 220",1,29
王的秘製黑蒜牛肉麵 新莊秘製滷味 新莊美食 新莊小吃 新莊隱藏小吃 新莊隱藏美食 新莊牛肉麵 新莊滷味 新莊推薦美食,"242, New Taipei City, Xinzhuang District, Alley 17, Lane 377, Zhongping Road, 33號1樓",1,29
水貨炭火烤魚 中和店,"No. 317號, Section 2, Zhongshan Road, Zhonghe District, New Taipei City, 235",1,29
新疆麵食館/板橋美食/板橋小吃/板橋麵店/板橋牛肉麵/板橋美食推薦/板橋小吃推薦,"No. 219號, Guoguang Road, Banqiao District, New Taipei City, 220",1,29
Gongzhu Bing Italian Restaurant,"242, New Taipei City, Xinzhuang District, Minan Road, 212號2樓",1,29
Halla義式餐廳/Halla健康餐盒-板橋健康便當|健康餐盒|義式餐廳|好吃義大利麵|好吃餐廳|推薦美食餐廳,"No. 21號, Lane 158, Section 1, Zhongshan Road, Banqiao District, New Taipei City, 220",1,29
Jinling Restaurant,"No. 283號, Jinmen Street, Banqiao District, New Taipei City, 220",1,29
Haitian Restaurant,"No. 42號, Shuxin Road, Shulin District, New Taipei City, 238",1,29
A Qing Seafood Restaurant,"No. 276號, Zhangxing Road, Luzhou District, New Taipei City, 247",1,29
樂漢堡美式餐廳LOVSS BURGER,"No. 133號, Hansheng East Road, Banqiao District, New Taipei City, 220",1,29
Murano,"No. 291, Zhonggang Road, Xinzhuang District, New Taipei City, 242",1,29
Mega 50 catering and banquet --50 floor cafe,"220, New Taipei City, Banqiao District, Xinzhan Road, 16號",1,29
真的好京漾飯店,"24247, New Taipei City, Xinzhuang District, Zhonggang Road, 572號2F",1,29
Jia Yan Chinese Restaurant,"3, No. 8號, Section 2, Xianmin Boulevard, Banqiao District, New Taipei City, 220",1,29
H&D客家小館,"No. 618號之1, Zhonggang Road, Xinzhuang District, New Taipei City, 242",1,29
文岩文 岩燒蜀辣鴛鴦鍋,"220, New Taipei City, Banqiao District, Lane 50, Section 1, Zhongshan Road, 6號2樓",1,29
青青餐廳/新北美食/台灣料理/台菜/結婚喜宴/taiwanfood/阿發師,"No. 6號, Section 3, Zhongyang Rd, Tucheng District, New Taipei City, 236",1,29
蔡家牛排/板橋美食/板橋牛排/板橋推薦餐廳/江子翠美食/板橋平價美食/板橋好吃,"No. 114, Minzhi St, Banqiao District, New Taipei City, 220",1,29
ABV Bar & Kitchen 閣樓餐酒館-頂樓景觀餐廳-義大利麵 歐陸料理(板橋府中店),"220, New Taipei City, Banqiao District, Fuzhong Road, 67號12樓",1,29
Bi Tan Shui Wan Restaurant,"231, New Taipei City, Xindian District, 碧潭風景區東岸商店街B09號",1,29
望月樓,"220, New Taipei City, Banqiao District, 新站路16號百揚大樓48樓",1,29
Pa' él y paella 西班牙開飯,"24243, New Taipei City, Xinzhuang District, Lane 347, Zhongzheng Road, 15號1樓",1,29
布娜飛比利時餐酒館bravobeer(板橋縣民廣場店)新北耶誕城,"220, New Taipei City, Banqiao District, Section 2, Xianmin Boulevard, 22號B1樓",1,29
W2 Cafe & Restaurant - 板橋打卡餐廳|板橋不限時咖啡廳|包場餐廳|江子翠下午茶|聚餐餐廳|約會餐廳|親子餐廳｜江子翠商業午餐｜江子翠必吃｜江子翠好吃｜江子翠健康養生｜江子翠美食晚餐,"22046, New Taipei City, Banqiao District, Lane 10, Section 3, Shuangshi Road, 24號1樓",1,29
蒔漁 輕食廚房。安心水產,"No. 8號, Lane 70, Songbai Street, Banqiao District, New Taipei City, 220",1,29
Dishes 好盤美味廚房/板橋美食推薦/新埔捷運站美食/義大利麵/美式漢堡/燉飯,"No. 32, Xinhai Road, Banqiao District, New Taipei City, 22051",1,29
丰禾台式小館 板橋環球店,"220, New Taipei City, Banqiao District, Section 2, Xianmin Boulevard, 7號2樓",1,29
Te Xiang Zhai Western Restaurant,"220, New Taipei City, Banqiao District, Section 1, Zhongshan Road, 26號",1,29
Fishing Family Seafood Bistro,"No. 126, Section 2, Wenhua Road, Banqiao District, New Taipei City, 220",1,29
Le Ble d'Or,"242, New Taipei City, Xinzhuang District, Wugong Road, 66號",1,29
俊師的廚房,"No. 4號, Lane 86, Wugongsan Road, Xinzhuang District, New Taipei City, 242",1,29
Mega 50 Catering and banquet - Asia 49 Asian Cuisine & Lounge,"49, No. 16號, Xinzhan Road, Banqiao District, New Taipei City, 220",1,29
歐義式 ALL 14 WELL,"No. 106號, Section 2, Nanya South Road, Banqiao District, New Taipei City, 220",1,29
G+9鮮釀餐廳(板橋國光店) 板橋美食/板橋餐廳推薦/板橋車站美食/公司尾牙/包場/義大利麵/新北耶誕城/可用三倍券振興券,"No. 232號, Guoguang Road, Banqiao District, New Taipei City, 220",1,29
來得福川菜客家菜餐廳,"No. 294, Zhongzheng Rd, Banqiao District, New Taipei City, 220",1,29
典藏33觀景餐廳,"220, New Taipei City, Banqiao District, Section 1, Zhongshan Road, 161號33樓",1,29
布娜飛比利時餐酒館BravoBeer 板橋新埔店,"No. 273號, Section 2, Xianmin Boulevard, Banqiao District, New Taipei City, 220",1,29
津囋灶咖（熱炒 美食 小館 海鮮餐廳）,"No. 7號, Linyuan Street, Banqiao District, New Taipei City, 220",1,29
Liu Biju Chaozhou casserole porridge a product Zhongshan headquarters,"No. 158號, Section 1, Zhongshan Road, Banqiao District, New Taipei City, 220",1,29
Kiki Restaurant,"220, New Taipei City, Banqiao District, Section 2, Xianmin Boulevard, 66號誠品商場 3樓",1,29
FD 健身飲食-新莊店,"No. 109號, Zhongyuan Rd, Xinzhuang District, New Taipei City, 242",1,29
藝奇新日本料理 板橋麗寶店,"220, New Taipei City, Banqiao District, Section 2, Xianmin Boulevard, 3號6樓",1,29
G+9鮮釀餐廳(板橋三民店) 板橋美食/尾牙/包場/板橋餐廳/慶生餐廳/新北耶誕城/可用三倍券振興券,"No. 69號, Section 2, Sanmin Road, Banqiao District, New Taipei City, 220",1,29
托斯卡尼尼義大利庭園餐廰-中壢店,"No. 168, Chang'an Road, Pingzhen District, Taoyuan City, 324",1,30
托斯卡尼尼義大利庭園餐廰-中壢店,"No. 168, Chang'an Road, Pingzhen District, Taoyuan City, 324",1,30
托斯卡尼尼義大利庭園餐廰-中壢店,"No. 168, Chang'an Road, Pingzhen District, Taoyuan City, 324",1,30
友竹居茶藝館,"No. 32, Zhongda Road, Zhongli District, Taoyuan City, 320",1,30
禪園人文花園餐廳,"No. 32號, Guang'an Street, Zhongli District, Taoyuan City, 320",1,30
Daddy's Hamburg,"No. 170, Zhongyang Road, Zhongli District, Taoyuan City, 320",1,30
麥克小姐,"No. 145號, Zhongyang Road, Pingzhen District, Taoyuan City, 324",1,30
胖食堂,"No. 230, Section 3, Minzu Road, Zhongli District, Taoyuan City, 320",1,30
義沐 Eat MU 中壢沐楓店,"320, Taoyuan City, Zhongli District, Bo'ai 3rd Road, 38號2F",1,30
巷弄和風定食,"No. 31號, Xietong Street, Zhongli District, Taoyuan City, 320",1,30
雲孔雀景觀餐廳～滇緬創意料理,"No. 85號, Lane 217 Sanzhi Rd, Zhongli District, Taoyuan City, 320",1,30
洋朵庭園餐廳-國際店,"No. 27號, Section 2, Guoji Road, Taoyuan District, Taoyuan City, 330",1,30
EnF-健康輕食餐廳,"No. 339號, Wuxing Road, Zhongli District, Taoyuan City, 320",1,30
十里香私房料理餐廳-桃園桌菜餐廳推薦/桃園合菜餐廳推薦/桃園區上海菜推薦/桃園區四川菜推薦/桃園區巷弄合菜餐廳/部落客推薦桃園區合菜料理 網友好評桃園桌菜 桃園家庭聚餐餐廳推薦 桃園區特色私房料理-合菜 川菜料理 家庭聚會 上海菜 公司聚餐 桃園美食餐廳推薦,"No. 28巷1號, Hongchang 3rd Street, Taoyuan District, Taoyuan City, 330",1,30
貓咪貓咪G9 桌遊披薩主題餐廳(中壢中原店)(週一至週五網路預約制),"320, Taoyuan City, Zhongli District, Rixin Road, 8號2樓",1,30
New corner handmade dishes,"No. 69, Daxiang Street, Zhongli District, Taoyuan City, 320",1,30
LALA Kitchen,"No. 300, Zhongda Road, Zhongli District, Taoyuan City, 320",1,30
真蝦流頂級水道蝦火鍋複合式餐廳,"No. 277-1號, Jianxin Street, Taoyuan District, Taoyuan City, 330",1,30
No.17 White House,"No. 21號, Lane 216, Zhongyang Road, Zhongli District, Taoyuan City, 320",1,30
Shine Mood National Central University,"No. 300, Zhongda Road, Zhongli District, Taoyuan City, 320",1,30
